{
  "type": "FeatureCollection",
  "features": [
    {
      "type": "Feature",
      "properties": {
        "n03_code": "33202",
        "name": "岡山県 倉敷市"
      },
      "geometry": {
        "type": "Polygon",
        "coordinates": [
          [
            [
              133.83252024581282,
              34.41747246818005
            ],
            [
              133.83253697769953,
              34.41740719808388
            ],
            [
              133.83249302153592,
              34.417479134854375
            ],
            [
              133.83252024581282,
              34.41747246818005
            ]
          ]
        ]
      }
    },
    {
      "type": "Feature",
      "properties": {
        "n03_code": "33202",
        "name": "岡山県 倉敷市"
      },
      "geometry": {
        "type": "Polygon",
        "coordinates": [
          [
            [
              133.832954863876,
              34.417564413966716
            ],
            [
              133.8329335022795,
              34.41749669411729
            ],
            [
              133.83294927369025,
              34.41758916241008
            ],
            [
              133.832954863876,
              34.417564413966716
            ]
          ]
        ]
      }
    },
    {
      "type": "Feature",
      "properties": {
        "n03_code": "33202",
        "name": "岡山県 倉敷市"
      },
      "geometry": {
        "type": "Polygon",
        "coordinates": [
          [
            [
              133.8299574972409,
              34.41853489217169
            ],
            [
              133.82990347586485,
              34.418473802124424
            ],
            [
              133.82988347584194,
              34.41863149554723
            ],
            [
              133.8299574972409,
              34.41853489217169
            ]
          ]
        ]
      }
    },
    {
      "type": "Feature",
      "properties": {
        "n03_code": "33202",
        "name": "岡山県 倉敷市"
      },
      "geometry": {
        "type": "Polygon",
        "coordinates": [
          [
            [
              133.83739408566873,
              34.42251169425947
            ],
            [
              133.83738824906857,
              34.42212174822026
            ],
            [
              133.83677780814946,
              34.422324387060996
            ],
            [
              133.83739408566873,
              34.42251169425947
            ]
          ]
        ]
      }
    },
    {
      "type": "Feature",
      "properties": {
        "n03_code": "33202",
        "name": "岡山県 倉敷市"
      },
      "geometry": {
        "type": "Polygon",
        "coordinates": [
          [
            [
              133.8217860826618,
              34.42346058603738
            ],
            [
              133.82188632919087,
              34.42345044168468
            ],
            [
              133.82179355422932,
              34.42339561361683
            ],
            [
              133.8217860826618,
              34.42346058603738
            ]
          ]
        ]
      }
    },
    {
      "type": "Feature",
      "properties": {
        "n03_code": "33202",
        "name": "岡山県 倉敷市"
      },
      "geometry": {
        "type": "Polygon",
        "coordinates": [
          [
            [
              133.83677832705837,
              34.425470774956466
            ],
            [
              133.8318953312048,
              34.4173878923375
            ],
            [
              133.83092044092575,
              34.41759897311431
            ],
            [
              133.82785894903145,
              34.42378233288849
            ],
            [
              133.83677832705837,
              34.425470774956466
            ]
          ]
        ]
      }
    },
    {
      "type": "Feature",
      "properties": {
        "n03_code": "33202",
        "name": "岡山県 倉敷市"
      },
      "geometry": {
        "type": "Polygon",
        "coordinates": [
          [
            [
              133.8150656414664,
              34.42539466713038
            ],
            [
              133.81799438353414,
              34.424165162592374
            ],
            [
              133.81397058377559,
              34.42566058586749
            ],
            [
              133.8150656414664,
              34.42539466713038
            ]
          ]
        ]
      }
    },
    {
      "type": "Feature",
      "properties": {
        "n03_code": "33202",
        "name": "岡山県 倉敷市"
      },
      "geometry": {
        "type": "Polygon",
        "coordinates": [
          [
            [
              133.76385983056696,
              34.42865261322771
            ],
            [
              133.76442824886476,
              34.42786189241258
            ],
            [
              133.7638218935657,
              34.428634387567115
            ],
            [
              133.76385983056696,
              34.42865261322771
            ]
          ]
        ]
      }
    },
    {
      "type": "Feature",
      "properties": {
        "n03_code": "33202",
        "name": "岡山県 倉敷市"
      },
      "geometry": {
        "type": "Polygon",
        "coordinates": [
          [
            [
              133.7611653304158,
              34.43129280242107
            ],
            [
              133.7747229960696,
              34.42670553243454
            ],
            [
              133.77689214016027,
              34.421599054153205
            ],
            [
              133.76397466859623,
              34.41977069466202
            ],
            [
              133.7611653304158,
              34.43129280242107
            ]
          ]
        ]
      }
    },
    {
      "type": "Feature",
      "properties": {
        "n03_code": "33202",
        "name": "岡山県 倉敷市"
      },
      "geometry": {
        "type": "Polygon",
        "coordinates": [
          [
            [
              133.8057107001888,
              34.434534198294784
            ],
            [
              133.80571988316626,
              34.4345766939594
            ],
            [
              133.80635296991386,
              34.43459186552235
            ],
            [
              133.8057107001888,
              34.434534198294784
            ]
          ]
        ]
      }
    },
    {
      "type": "Feature",
      "properties": {
        "n03_code": "33202",
        "name": "岡山県 倉敷市"
      },
      "geometry": {
        "type": "Polygon",
        "coordinates": [
          [
            [
              133.79861680921852,
              34.43540149548278
            ],
            [
              133.79920236050066,
              34.43529136000842
            ],
            [
              133.79860891047304,
              34.435356387287584
            ],
            [
              133.79861680921852,
              34.43540149548278
            ]
          ]
        ]
      }
    },
    {
      "type": "Feature",
      "properties": {
        "n03_code": "33202",
        "name": "岡山県 倉敷市"
      },
      "geometry": {
        "type": "Polygon",
        "coordinates": [
          [
            [
              133.79732374779292,
              34.43554458661356
            ],
            [
              133.79795561595904,
              34.43542566746078
            ],
            [
              133.79731588771824,
              34.43549946852579
            ],
            [
              133.79732374779292,
              34.43554458661356
            ]
          ]
        ]
      }
    },
    {
      "type": "Feature",
      "properties": {
        "n03_code": "33202",
        "name": "岡山県 倉敷市"
      },
      "geometry": {
        "type": "Polygon",
        "coordinates": [
          [
            [
              133.80173936418043,
              34.43568810851957
            ],
            [
              133.80202785949825,
              34.43554258652131
            ],
            [
              133.80172055755781,
              34.435651775009546
            ],
            [
              133.80173936418043,
              34.43568810851957
            ]
          ]
        ]
      }
    },
    {
      "type": "Feature",
      "properties": {
        "n03_code": "33202",
        "name": "岡山県 倉敷市"
      },
      "geometry": {
        "type": "Polygon",
        "coordinates": [
          [
            [
              133.79783596565744,
              34.435844360329156
            ],
            [
              133.798851633896,
              34.435688774917196
            ],
            [
              133.79782810558277,
              34.43579925213396
            ],
            [
              133.79783596565744,
              34.435844360329156
            ]
          ]
        ]
      }
    },
    {
      "type": "Feature",
      "properties": {
        "n03_code": "33202",
        "name": "岡山県 倉敷市"
      },
      "geometry": {
        "type": "Polygon",
        "coordinates": [
          [
            [
              133.80236358001537,
              34.43612319872682
            ],
            [
              133.8042801944756,
              34.435448494952254
            ],
            [
              133.80583603060848,
              34.43504041408403
            ],
            [
              133.80251477313845,
              34.43587366743594
            ],
            [
              133.80236358001537,
              34.43612319872682
            ]
          ]
        ]
      }
    },
    {
      "type": "Feature",
      "properties": {
        "n03_code": "33202",
        "name": "岡山県 倉敷市"
      },
      "geometry": {
        "type": "Polygon",
        "coordinates": [
          [
            [
              133.79287333303807,
              34.43766861351588
            ],
            [
              133.79286808009795,
              34.43764153223111
            ],
            [
              133.7915550582195,
              34.437906279151605
            ],
            [
              133.791573800091,
              34.43794919839695
            ],
            [
              133.79287333303807,
              34.43766861351588
            ]
          ]
        ]
      }
    },
    {
      "type": "Feature",
      "properties": {
        "n03_code": "33202",
        "name": "岡山県 倉敷市"
      },
      "geometry": {
        "type": "Polygon",
        "coordinates": [
          [
            [
              133.75756530469528,
              34.444285495079725
            ],
            [
              133.75879946772147,
              34.442472639900586
            ],
            [
              133.7564832808789,
              34.44398569438448
            ],
            [
              133.75756530469528,
              34.444285495079725
            ]
          ]
        ]
      }
    },
    {
      "type": "Feature",
      "properties": {
        "n03_code": "33202",
        "name": "岡山県 倉敷市"
      },
      "geometry": {
        "type": "Polygon",
        "coordinates": [
          [
            [
              133.81274680881836,
              34.44492613523312
            ],
            [
              133.81319427999222,
              34.44339994615075
            ],
            [
              133.81316664112774,
              34.442595108677494
            ],
            [
              133.81253930014873,
              34.44460746855998
            ],
            [
              133.81274680881836,
              34.44492613523312
            ]
          ]
        ]
      }
    },
    {
      "type": "Feature",
      "properties": {
        "n03_code": "33202",
        "name": "岡山県 倉敷市"
      },
      "geometry": {
        "type": "Polygon",
        "coordinates": [
          [
            [
              133.81338335885505,
              34.44537510827479
            ],
            [
              133.81331985682607,
              34.44464910807005
            ],
            [
              133.8133208038122,
              34.445374865457836
            ],
            [
              133.81338335885505,
              34.44537510827479
            ]
          ]
        ]
      }
    },
    {
      "type": "Feature",
      "properties": {
        "n03_code": "33202",
        "name": "岡山県 倉敷市"
      },
      "geometry": {
        "type": "Polygon",
        "coordinates": [
          [
            [
              133.7533926068835,
              34.44641758620281
            ],
            [
              133.75328389053925,
              34.446401279695465
            ],
            [
              133.75331316527058,
              34.44649833363138
            ],
            [
              133.7533926068835,
              34.44641758620281
            ]
          ]
        ]
      }
    },
    {
      "type": "Feature",
      "properties": {
        "n03_code": "33202",
        "name": "岡山県 倉敷市"
      },
      "geometry": {
        "type": "Polygon",
        "coordinates": [
          [
            [
              133.69433219187738,
              34.44642546786122
            ],
            [
              133.69482097251,
              34.446575946023245
            ],
            [
              133.69480713374242,
              34.446420468529936
            ],
            [
              133.69433219187738,
              34.44642546786122
            ]
          ]
        ]
      }
    },
    {
      "type": "Feature",
      "properties": {
        "n03_code": "33202",
        "name": "岡山県 倉敷市"
      },
      "geometry": {
        "type": "Polygon",
        "coordinates": [
          [
            [
              133.6931245264759,
              34.4468023062816
            ],
            [
              133.69367413725183,
              34.44640830609859
            ],
            [
              133.6926665889921,
              34.44654702742355
            ],
            [
              133.6931245264759,
              34.4468023062816
            ]
          ]
        ]
      }
    },
    {
      "type": "Feature",
      "properties": {
        "n03_code": "33202",
        "name": "岡山県 倉敷市"
      },
      "geometry": {
        "type": "Polygon",
        "coordinates": [
          [
            [
              133.75451263245225,
              34.447868775423785
            ],
            [
              133.75466894901297,
              34.4477674416143
            ],
            [
              133.75462538315503,
              34.447740559079705
            ],
            [
              133.75451263245225,
              34.447868775423785
            ]
          ]
        ]
      }
    },
    {
      "type": "Feature",
      "properties": {
        "n03_code": "33202",
        "name": "岡山県 倉敷市"
      },
      "geometry": {
        "type": "Polygon",
        "coordinates": [
          [
            [
              133.81126425394234,
              34.44883936064815
            ],
            [
              133.8112088593016,
              34.44812233297944
            ],
            [
              133.81117719776967,
              34.44883674811757
            ],
            [
              133.81126425394234,
              34.44883936064815
            ]
          ]
        ]
      }
    },
    {
      "type": "Feature",
      "properties": {
        "n03_code": "33202",
        "name": "岡山県 倉敷市"
      },
      "geometry": {
        "type": "Polygon",
        "coordinates": [
          [
            [
              133.7519988069995,
              34.449478081648294
            ],
            [
              133.75398121855858,
              34.4469730003039
            ],
            [
              133.75130481186773,
              34.449163828847816
            ],
            [
              133.7519988069995,
              34.449478081648294
            ]
          ]
        ]
      }
    },
    {
      "type": "Feature",
      "properties": {
        "n03_code": "33202",
        "name": "岡山県 倉敷市"
      },
      "geometry": {
        "type": "Polygon",
        "coordinates": [
          [
            [
              133.69621725002628,
              34.44900297340865
            ],
            [
              133.69703477243695,
              34.448470000090595
            ],
            [
              133.69642522724257,
              34.44834141412514
            ],
            [
              133.69621725002628,
              34.44900297340865
            ]
          ]
        ]
      }
    },
    {
      "type": "Feature",
      "properties": {
        "n03_code": "33202",
        "name": "岡山県 倉敷市"
      },
      "geometry": {
        "type": "Polygon",
        "coordinates": [
          [
            [
              133.77545328064457,
              34.44993797335894
            ],
            [
              133.77571708147832,
              34.44986974809058
            ],
            [
              133.77544933891602,
              34.44990782898327
            ],
            [
              133.77545328064457,
              34.44993797335894
            ]
          ]
        ]
      }
    },
    {
      "type": "Feature",
      "properties": {
        "n03_code": "33202",
        "name": "岡山県 倉敷市"
      },
      "geometry": {
        "type": "Polygon",
        "coordinates": [
          [
            [
              133.85075581063234,
              34.4492239467279
            ],
            [
              133.85528997385336,
              34.44799302755632
            ],
            [
              133.85349878064437,
              34.44489361304994
            ],
            [
              133.85075581063234,
              34.4492239467279
            ]
          ]
        ]
      }
    },
    {
      "type": "Feature",
      "properties": {
        "n03_code": "33202",
        "name": "岡山県 倉敷市"
      },
      "geometry": {
        "type": "Polygon",
        "coordinates": [
          [
            [
              133.8652178597166,
              34.4509364951233
            ],
            [
              133.86509352754445,
              34.450787252629766
            ],
            [
              133.86503641969523,
              34.45099827944722
            ],
            [
              133.8652178597166,
              34.4509364951233
            ]
          ]
        ]
      }
    },
    {
      "type": "Feature",
      "properties": {
        "n03_code": "33202",
        "name": "岡山県 倉敷市"
      },
      "geometry": {
        "type": "Polygon",
        "coordinates": [
          [
            [
              133.81164858551404,
              34.44653522562032
            ],
            [
              133.81158785969217,
              34.44711422534141
            ],
            [
              133.8109431644956,
              34.45102874847811
            ],
            [
              133.81155172493231,
              34.448112532167784
            ],
            [
              133.81164858551404,
              34.44653522562032
            ]
          ]
        ]
      }
    },
    {
      "type": "Feature",
      "properties": {
        "n03_code": "33202",
        "name": "岡山県 倉敷市"
      },
      "geometry": {
        "type": "Polygon",
        "coordinates": [
          [
            [
              133.86433208775577,
              34.45121030631077
            ],
            [
              133.86492141349265,
              34.45091280248403
            ],
            [
              133.86479700397877,
              34.450781612981245
            ],
            [
              133.86433208775577,
              34.45121030631077
            ]
          ]
        ]
      }
    },
    {
      "type": "Feature",
      "properties": {
        "n03_code": "33202",
        "name": "岡山県 倉敷市"
      },
      "geometry": {
        "type": "Polygon",
        "coordinates": [
          [
            [
              133.69772525301823,
              34.45114764065124
            ],
            [
              133.698081919645,
              34.45141408099522
            ],
            [
              133.69798863746587,
              34.451086440886684
            ],
            [
              133.69772525301823,
              34.45114764065124
            ]
          ]
        ]
      }
    },
    {
      "type": "Feature",
      "properties": {
        "n03_code": "33202",
        "name": "岡山県 倉敷市"
      },
      "geometry": {
        "type": "Polygon",
        "coordinates": [
          [
            [
              133.75007055801007,
              34.4494369736376
            ],
            [
              133.7477061090499,
              34.45031522546742
            ],
            [
              133.74768527895264,
              34.45160172094285
            ],
            [
              133.75007055801007,
              34.4494369736376
            ]
          ]
        ]
      }
    },
    {
      "type": "Feature",
      "properties": {
        "n03_code": "33202",
        "name": "岡山県 倉敷市"
      },
      "geometry": {
        "type": "Polygon",
        "coordinates": [
          [
            [
              133.77420267171613,
              34.4515781982754
            ],
            [
              133.7741751875351,
              34.4515670538766
            ],
            [
              133.774051218689,
              34.45184761357666
            ],
            [
              133.77420267171613,
              34.4515781982754
            ]
          ]
        ]
      }
    },
    {
      "type": "Feature",
      "properties": {
        "n03_code": "33202",
        "name": "岡山県 倉敷市"
      },
      "geometry": {
        "type": "Polygon",
        "coordinates": [
          [
            [
              133.7481832164824,
              34.45192044157528
            ],
            [
              133.74806496822384,
              34.45175777490158
            ],
            [
              133.748074915625,
              34.45192416207061
            ],
            [
              133.7481832164824,
              34.45192044157528
            ]
          ]
        ]
      }
    },
    {
      "type": "Feature",
      "properties": {
        "n03_code": "33202",
        "name": "岡山県 倉敷市"
      },
      "geometry": {
        "type": "Polygon",
        "coordinates": [
          [
            [
              133.74744775540978,
              34.45266853272676
            ],
            [
              133.74785936341902,
              34.45285469418894
            ],
            [
              133.74782130950598,
              34.452582973025926
            ],
            [
              133.74744775540978,
              34.45266853272676
            ]
          ]
        ]
      }
    },
    {
      "type": "Feature",
      "properties": {
        "n03_code": "33202",
        "name": "岡山県 倉敷市"
      },
      "geometry": {
        "type": "Polygon",
        "coordinates": [
          [
            [
              133.77004094653262,
              34.45448141398623
            ],
            [
              133.77017450125243,
              34.4542541355201
            ],
            [
              133.76990564173218,
              34.454242161946354
            ],
            [
              133.77004094653262,
              34.45448141398623
            ]
          ]
        ]
      }
    },
    {
      "type": "Feature",
      "properties": {
        "n03_code": "33202",
        "name": "岡山県 倉敷市"
      },
      "geometry": {
        "type": "Polygon",
        "coordinates": [
          [
            [
              133.74573608295407,
              34.45463413505746
            ],
            [
              133.74770855970246,
              34.45454797371019
            ],
            [
              133.74752771683086,
              34.4540725327214
            ],
            [
              133.74573608295407,
              34.45463413505746
            ]
          ]
        ]
      }
    },
    {
      "type": "Feature",
      "properties": {
        "n03_code": "33202",
        "name": "岡山県 倉敷市"
      },
      "geometry": {
        "type": "Polygon",
        "coordinates": [
          [
            [
              133.81409547262808,
              34.45869166748662
            ],
            [
              133.81144308682917,
              34.45815755922416
            ],
            [
              133.81364686111397,
              34.45863566760215
            ],
            [
              133.81409547262808,
              34.45869166748662
            ]
          ]
        ]
      }
    },
    {
      "type": "Feature",
      "properties": {
        "n03_code": "33202",
        "name": "岡山県 倉敷市"
      },
      "geometry": {
        "type": "Polygon",
        "coordinates": [
          [
            [
              133.80893775547327,
              34.45933461350177
            ],
            [
              133.80994674354758,
              34.45899410859141
            ],
            [
              133.80892703015854,
              34.459307532217
            ],
            [
              133.80893775547327,
              34.45933461350177
            ]
          ]
        ]
      }
    },
    {
      "type": "Feature",
      "properties": {
        "n03_code": "33202",
        "name": "岡山県 倉敷市"
      },
      "geometry": {
        "type": "Polygon",
        "coordinates": [
          [
            [
              133.77396072620672,
              34.460229973134915
            ],
            [
              133.7741733070527,
              34.458953000580664
            ],
            [
              133.7734679121146,
              34.461090919310664
            ],
            [
              133.77396072620672,
              34.460229973134915
            ]
          ]
        ]
      }
    },
    {
      "type": "Feature",
      "properties": {
        "n03_code": "33202",
        "name": "岡山県 倉敷市"
      },
      "geometry": {
        "type": "Polygon",
        "coordinates": [
          [
            [
              133.772756031266,
              34.46132502722838
            ],
            [
              133.77296260643936,
              34.460592864869
            ],
            [
              133.77258752259627,
              34.46126008088817
            ],
            [
              133.772756031266,
              34.46132502722838
            ]
          ]
        ]
      }
    },
    {
      "type": "Feature",
      "properties": {
        "n03_code": "33202",
        "name": "岡山県 倉敷市"
      },
      "geometry": {
        "type": "Polygon",
        "coordinates": [
          [
            [
              133.77309522676353,
              34.462379865438606
            ],
            [
              133.77335302192455,
              34.461699946495514
            ],
            [
              133.77341457782063,
              34.461531081694204
            ],
            [
              133.77309522676353,
              34.462379865438606
            ]
          ]
        ]
      }
    },
    {
      "type": "Feature",
      "properties": {
        "n03_code": "33202",
        "name": "岡山県 倉敷市"
      },
      "geometry": {
        "type": "Polygon",
        "coordinates": [
          [
            [
              133.77396775620718,
              34.462294613305914
            ],
            [
              133.7739492481594,
              34.46227802710945
            ],
            [
              133.77333367121219,
              34.462626892117555
            ],
            [
              133.77396775620718,
              34.462294613305914
            ]
          ]
        ]
      }
    },
    {
      "type": "Feature",
      "properties": {
        "n03_code": "33202",
        "name": "岡山県 倉敷市"
      },
      "geometry": {
        "type": "Polygon",
        "coordinates": [
          [
            [
              133.76072938944992,
              34.462052639917545
            ],
            [
              133.76273085584455,
              34.463037919164776
            ],
            [
              133.76223557671062,
              34.462242252078454
            ],
            [
              133.76072938944992,
              34.462052639917545
            ]
          ]
        ]
      }
    },
    {
      "type": "Feature",
      "properties": {
        "n03_code": "33202",
        "name": "岡山県 倉敷市"
      },
      "geometry": {
        "type": "Polygon",
        "coordinates": [
          [
            [
              133.68827230902002,
              34.461641721688295
            ],
            [
              133.69294099912804,
              34.46233477522986
            ],
            [
              133.69012241142036,
              34.46040900027532
            ],
            [
              133.68827230902002,
              34.461641721688295
            ]
          ]
        ]
      }
    },
    {
      "type": "Feature",
      "properties": {
        "n03_code": "33202",
        "name": "岡山県 倉敷市"
      },
      "geometry": {
        "type": "Polygon",
        "coordinates": [
          [
            [
              133.81770922200315,
              34.46594705421336
            ],
            [
              133.81790330649255,
              34.46507877496566
            ],
            [
              133.8175060831394,
              34.46588027955141
            ],
            [
              133.81770922200315,
              34.46594705421336
            ]
          ]
        ]
      }
    },
    {
      "type": "Feature",
      "properties": {
        "n03_code": "33202",
        "name": "岡山県 倉敷市"
      },
      "geometry": {
        "type": "Polygon",
        "coordinates": [
          [
            [
              133.7115602462086,
              34.46615610791821
            ],
            [
              133.7167520881385,
              34.46111841428353
            ],
            [
              133.70735571959096,
              34.46379022543874
            ],
            [
              133.7115602462086,
              34.46615610791821
            ]
          ]
        ]
      }
    },
    {
      "type": "Feature",
      "properties": {
        "n03_code": "33202",
        "name": "岡山県 倉敷市"
      },
      "geometry": {
        "type": "Polygon",
        "coordinates": [
          [
            [
              133.81647063611115,
              34.46654474814176
            ],
            [
              133.81659858625596,
              34.46651727924922
            ],
            [
              133.816469027224,
              34.46652410870081
            ],
            [
              133.81647063611115,
              34.46654474814176
            ]
          ]
        ]
      }
    },
    {
      "type": "Feature",
      "properties": {
        "n03_code": "33202",
        "name": "岡山県 倉敷市"
      },
      "geometry": {
        "type": "Polygon",
        "coordinates": [
          [
            [
              133.8164011931607,
              34.466577198379184
            ],
            [
              133.81640180290105,
              34.46651355965321
            ],
            [
              133.81638447476382,
              34.46657389247133
            ],
            [
              133.8164011931607,
              34.466577198379184
            ]
          ]
        ]
      }
    },
    {
      "type": "Feature",
      "properties": {
        "n03_code": "33202",
        "name": "岡山県 倉敷市"
      },
      "geometry": {
        "type": "Polygon",
        "coordinates": [
          [
            [
              133.81623483746796,
              34.466567748303135
            ],
            [
              133.8163067184804,
              34.466486640246444
            ],
            [
              133.81628649812353,
              34.46648410865487
            ],
            [
              133.81623483746796,
              34.466567748303135
            ]
          ]
        ]
      }
    },
    {
      "type": "Feature",
      "properties": {
        "n03_code": "33202",
        "name": "岡山県 倉敷市"
      },
      "geometry": {
        "type": "Polygon",
        "coordinates": [
          [
            [
              133.8160353570463,
              34.46646891910552
            ],
            [
              133.81605566823464,
              34.466548586448255
            ],
            [
              133.81607975387772,
              34.466458721692845
            ],
            [
              133.8160353570463,
              34.46646891910552
            ]
          ]
        ]
      }
    },
    {
      "type": "Feature",
      "properties": {
        "n03_code": "33202",
        "name": "岡山県 倉敷市"
      },
      "geometry": {
        "type": "Polygon",
        "coordinates": [
          [
            [
              133.81638391718423,
              34.466645278856674
            ],
            [
              133.81638194587026,
              34.466578279364285
            ],
            [
              133.81636671854938,
              34.46664249545495
            ],
            [
              133.81638391718423,
              34.466645278856674
            ]
          ]
        ]
      }
    },
    {
      "type": "Feature",
      "properties": {
        "n03_code": "33202",
        "name": "岡山県 倉敷市"
      },
      "geometry": {
        "type": "Polygon",
        "coordinates": [
          [
            [
              133.8609934760682,
              34.46672689233236
            ],
            [
              133.8616616336776,
              34.466470197941476
            ],
            [
              133.86197138806926,
              34.46655477558261
            ],
            [
              133.8616618288305,
              34.46643413512737
            ],
            [
              133.8609934760682,
              34.46672689233236
            ]
          ]
        ]
      }
    },
    {
      "type": "Feature",
      "properties": {
        "n03_code": "33202",
        "name": "岡山県 倉敷市"
      },
      "geometry": {
        "type": "Polygon",
        "coordinates": [
          [
            [
              133.81682902673833,
              34.46697902716056
            ],
            [
              133.8168558112469,
              34.46692513528694
            ],
            [
              133.8168099476212,
              34.46696316222034
            ],
            [
              133.81682902673833,
              34.46697902716056
            ]
          ]
        ]
      }
    },
    {
      "type": "Feature",
      "properties": {
        "n03_code": "33202",
        "name": "岡山県 倉敷市"
      },
      "geometry": {
        "type": "Polygon",
        "coordinates": [
          [
            [
              133.86309894905742,
              34.467025225334055
            ],
            [
              133.8631097535125,
              34.46696349496949
            ],
            [
              133.86308063616264,
              34.466970162543134
            ],
            [
              133.86309894905742,
              34.467025225334055
            ]
          ]
        ]
      }
    },
    {
      "type": "Feature",
      "properties": {
        "n03_code": "33202",
        "name": "岡山県 倉敷市"
      },
      "geometry": {
        "type": "Polygon",
        "coordinates": [
          [
            [
              133.8158832556079,
              34.46704372169057
            ],
            [
              133.8152454465203,
              34.46674846796759
            ],
            [
              133.81554661508437,
              34.46691380203049
            ],
            [
              133.8158832556079,
              34.46704372169057
            ]
          ]
        ]
      }
    },
    {
      "type": "Feature",
      "properties": {
        "n03_code": "33202",
        "name": "岡山県 倉敷市"
      },
      "geometry": {
        "type": "Polygon",
        "coordinates": [
          [
            [
              133.81669505743116,
              34.467062748647095
            ],
            [
              133.8167281452878,
              34.46700880191486
            ],
            [
              133.8166788066818,
              34.467049054670326
            ],
            [
              133.81669505743116,
              34.467062748647095
            ]
          ]
        ]
      }
    },
    {
      "type": "Feature",
      "properties": {
        "n03_code": "33202",
        "name": "岡山県 倉敷市"
      },
      "geometry": {
        "type": "Polygon",
        "coordinates": [
          [
            [
              133.81664530513694,
              34.467098333021795
            ],
            [
              133.81665649809906,
              34.467063946544044
            ],
            [
              133.81662972797972,
              34.467084279316225
            ],
            [
              133.81664530513694,
              34.467098333021795
            ]
          ]
        ]
      }
    },
    {
      "type": "Feature",
      "properties": {
        "n03_code": "33202",
        "name": "岡山県 倉敷市"
      },
      "geometry": {
        "type": "Polygon",
        "coordinates": [
          [
            [
              133.8631207522211,
              34.46713358644604
            ],
            [
              133.86313577179862,
              34.467037000157575
            ],
            [
              133.863096886912,
              34.467044054439725
            ],
            [
              133.8631207522211,
              34.46713358644604
            ]
          ]
        ]
      }
    },
    {
      "type": "Feature",
      "properties": {
        "n03_code": "33202",
        "name": "岡山県 倉敷市"
      },
      "geometry": {
        "type": "Polygon",
        "coordinates": [
          [
            [
              133.8165790008204,
              34.46717241467536
            ],
            [
              133.81658775572055,
              34.467145774957714
            ],
            [
              133.81656708210528,
              34.46716200052606
            ],
            [
              133.8165790008204,
              34.46717241467536
            ]
          ]
        ]
      }
    },
    {
      "type": "Feature",
      "properties": {
        "n03_code": "33202",
        "name": "岡山県 倉敷市"
      },
      "geometry": {
        "type": "Polygon",
        "coordinates": [
          [
            [
              133.816335382572,
              34.46734602699769
            ],
            [
              133.8164166147352,
              34.46725674860022
            ],
            [
              133.81632544686204,
              34.46733849517557
            ],
            [
              133.816335382572,
              34.46734602699769
            ]
          ]
        ]
      }
    },
    {
      "type": "Feature",
      "properties": {
        "n03_code": "33202",
        "name": "岡山県 倉敷市"
      },
      "geometry": {
        "type": "Polygon",
        "coordinates": [
          [
            [
              133.8156060045137,
              34.46797733308762
            ],
            [
              133.81589758810344,
              34.467684494943626
            ],
            [
              133.81558649821852,
              34.46796436036709
            ],
            [
              133.8156060045137,
              34.46797733308762
            ]
          ]
        ]
      }
    },
    {
      "type": "Feature",
      "properties": {
        "n03_code": "33202",
        "name": "岡山県 倉敷市"
      },
      "geometry": {
        "type": "Polygon",
        "coordinates": [
          [
            [
              133.83019197118267,
              34.472052000299755
            ],
            [
              133.82887949429346,
              34.47127353184817
            ],
            [
              133.83019725020313,
              34.472081333486926
            ],
            [
              133.83019197118267,
              34.472052000299755
            ]
          ]
        ]
      }
    },
    {
      "type": "Feature",
      "properties": {
        "n03_code": "33202",
        "name": "岡山県 倉敷市"
      },
      "geometry": {
        "type": "Polygon",
        "coordinates": [
          [
            [
              133.74881680864894,
              34.488576441249904
            ],
            [
              133.74876438356966,
              34.488063108226015
            ],
            [
              133.74861033689774,
              34.48810572170186
            ],
            [
              133.74881680864894,
              34.488576441249904
            ]
          ]
        ]
      }
    },
    {
      "type": "Feature",
      "properties": {
        "n03_code": "33202",
        "name": "岡山県 倉敷市"
      },
      "geometry": {
        "type": "Polygon",
        "coordinates": [
          [
            [
              133.74682547311727,
              34.49081836027926
            ],
            [
              133.7468759655535,
              34.49039816194579
            ],
            [
              133.74671024568147,
              34.49078536055612
            ],
            [
              133.74682547311727,
              34.49081836027926
            ]
          ]
        ]
      }
    },
    {
      "type": "Feature",
      "properties": {
        "n03_code": "33202",
        "name": "岡山県 倉敷市"
      },
      "geometry": {
        "type": "Polygon",
        "coordinates": [
          [
            [
              133.6148373930314,
              34.494201667373204
            ],
            [
              133.61541795127755,
              34.49379489232058
            ],
            [
              133.61501143972635,
              34.49390069396202
            ],
            [
              133.6148373930314,
              34.494201667373204
            ]
          ]
        ]
      }
    },
    {
      "type": "Feature",
      "properties": {
        "n03_code": "33202",
        "name": "岡山県 倉敷市"
      },
      "geometry": {
        "type": "Polygon",
        "coordinates": [
          [
            [
              133.60861313928513,
              34.494431026870586
            ],
            [
              133.60706516142818,
              34.494185829412686
            ],
            [
              133.60705136223078,
              34.494233613090955
            ],
            [
              133.60861313928513,
              34.494431026870586
            ]
          ]
        ]
      }
    },
    {
      "type": "Feature",
      "properties": {
        "n03_code": "33202",
        "name": "岡山県 倉敷市"
      },
      "geometry": {
        "type": "Polygon",
        "coordinates": [
          [
            [
              133.62393817061024,
              34.49743597299192
            ],
            [
              133.62388158166982,
              34.49739316256455
            ],
            [
              133.623879468263,
              34.49741146826483
            ],
            [
              133.62393817061024,
              34.49743597299192
            ]
          ]
        ]
      }
    },
    {
      "type": "Feature",
      "properties": {
        "n03_code": "33202",
        "name": "岡山県 倉敷市"
      },
      "geometry": {
        "type": "Polygon",
        "coordinates": [
          [
            [
              133.74392433214234,
              34.49733202755118
            ],
            [
              133.74415418896479,
              34.49838408146036
            ],
            [
              133.74400089502547,
              34.49736097313058
            ],
            [
              133.74392433214234,
              34.49733202755118
            ]
          ]
        ]
      }
    },
    {
      "type": "Feature",
      "properties": {
        "n03_code": "33202",
        "name": "岡山県 倉敷市"
      },
      "geometry": {
        "type": "Polygon",
        "coordinates": [
          [
            [
              133.65864457768532,
              34.50117977512667
            ],
            [
              133.6632887549722,
              34.4961685863114
            ],
            [
              133.65858313870103,
              34.501142197854335
            ],
            [
              133.65864457768532,
              34.50117977512667
            ]
          ]
        ]
      }
    },
    {
      "type": "Feature",
      "properties": {
        "n03_code": "33202",
        "name": "岡山県 倉敷市"
      },
      "geometry": {
        "type": "Polygon",
        "coordinates": [
          [
            [
              133.65847547276508,
              34.50129000053329
            ],
            [
              133.65843488995836,
              34.50125822568674
            ],
            [
              133.65843736669126,
              34.50128977570273
            ],
            [
              133.65847547276508,
              34.50129000053329
            ]
          ]
        ]
      }
    },
    {
      "type": "Feature",
      "properties": {
        "n03_code": "33202",
        "name": "岡山県 倉敷市"
      },
      "geometry": {
        "type": "Polygon",
        "coordinates": [
          [
            [
              133.63981968892767,
              34.5018174951814
            ],
            [
              133.63925674390373,
              34.501813667666795
            ],
            [
              133.63925732756377,
              34.50183474867487
            ],
            [
              133.63981968892767,
              34.5018174951814
            ]
          ]
        ]
      }
    },
    {
      "type": "Feature",
      "properties": {
        "n03_code": "33202",
        "name": "岡山県 倉敷市"
      },
      "geometry": {
        "type": "Polygon",
        "coordinates": [
          [
            [
              133.68441632905058,
              34.5042667214322
            ],
            [
              133.6830033852982,
              34.48806733324102
            ],
            [
              133.66889360605524,
              34.487583216492396
            ],
            [
              133.66919302184067,
              34.50202802737175
            ],
            [
              133.68441632905058,
              34.5042667214322
            ]
          ]
        ]
      }
    },
    {
      "type": "Feature",
      "properties": {
        "n03_code": "33202",
        "name": "岡山県 倉敷市"
      },
      "geometry": {
        "type": "Polygon",
        "coordinates": [
          [
            [
              133.65429066108527,
              34.50578525188803
            ],
            [
              133.6582552269973,
              34.50149964059608
            ],
            [
              133.65423211342147,
              34.50575146795603
            ],
            [
              133.65429066108527,
              34.50578525188803
            ]
          ]
        ]
      }
    },
    {
      "type": "Feature",
      "properties": {
        "n03_code": "33202",
        "name": "岡山県 倉敷市"
      },
      "geometry": {
        "type": "Polygon",
        "coordinates": [
          [
            [
              133.6511402721061,
              34.51142438692608
            ],
            [
              133.65181972789833,
              34.51039738722983
            ],
            [
              133.6511055510805,
              34.511407532731596
            ],
            [
              133.6511402721061,
              34.51142438692608
            ]
          ]
        ]
      }
    },
    {
      "type": "Feature",
      "properties": {
        "n03_code": "33202",
        "name": "岡山県 倉敷市"
      },
      "geometry": {
        "type": "Polygon",
        "coordinates": [
          [
            [
              133.65000000010014,
              34.51143619862182
            ],
            [
              133.65074953286478,
              34.5110078650211
            ],
            [
              133.64974513582956,
              34.51154894662676
            ],
            [
              133.65000000010014,
              34.51143619862182
            ]
          ]
        ]
      }
    },
    {
      "type": "Feature",
      "properties": {
        "n03_code": "33202",
        "name": "岡山県 倉敷市"
      },
      "geometry": {
        "type": "Polygon",
        "coordinates": [
          [
            [
              133.65328544656631,
              34.51266882920328
            ],
            [
              133.65146700389926,
              34.51159922502438
            ],
            [
              133.65142197124715,
              34.51165602710415
            ],
            [
              133.65328544656631,
              34.51266882920328
            ]
          ]
        ]
      }
    },
    {
      "type": "Feature",
      "properties": {
        "n03_code": "33202",
        "name": "岡山県 倉敷市"
      },
      "geometry": {
        "type": "Polygon",
        "coordinates": [
          [
            [
              133.65611591341883,
              34.51423046866137
            ],
            [
              133.65374089472664,
              34.51281777492056
            ],
            [
              133.6536773018662,
              34.51289738740468
            ],
            [
              133.65611591341883,
              34.51423046866137
            ]
          ]
        ]
      }
    },
    {
      "type": "Feature",
      "properties": {
        "n03_code": "33202",
        "name": "岡山県 倉敷市"
      },
      "geometry": {
        "type": "Polygon",
        "coordinates": [
          [
            [
              133.6578517767383,
              34.515171721597824
            ],
            [
              133.6565506609844,
              34.51435369466742
            ],
            [
              133.6564910251409,
              34.51442855963046
            ],
            [
              133.6578517767383,
              34.515171721597824
            ]
          ]
        ]
      }
    },
    {
      "type": "Feature",
      "properties": {
        "n03_code": "33202",
        "name": "岡山県 倉敷市"
      },
      "geometry": {
        "type": "Polygon",
        "coordinates": [
          [
            [
              133.65833333311696,
              34.51532922526371
            ],
            [
              133.65823121869596,
              34.515373054622955
            ],
            [
              133.66017824912706,
              34.51633735988145
            ],
            [
              133.65833333311696,
              34.51532922526371
            ]
          ]
        ]
      }
    },
    {
      "type": "Feature",
      "properties": {
        "n03_code": "33202",
        "name": "岡山県 倉敷市"
      },
      "geometry": {
        "type": "Polygon",
        "coordinates": [
          [
            [
              133.66475272355956,
              34.51717425189037
            ],
            [
              133.66480335898802,
              34.51549494603512
            ],
            [
              133.66468031104773,
              34.51716953224826
            ],
            [
              133.66475272355956,
              34.51717425189037
            ]
          ]
        ]
      }
    },
    {
      "type": "Feature",
      "properties": {
        "n03_code": "33202",
        "name": "岡山県 倉敷市"
      },
      "geometry": {
        "type": "Polygon",
        "coordinates": [
          [
            [
              133.6607961346341,
              34.51666666733297
            ],
            [
              133.66050272362202,
              34.51660544148808
            ],
            [
              133.66250136164865,
              34.51761919866726
            ],
            [
              133.6607961346341,
              34.51666666733297
            ]
          ]
        ]
      }
    },
    {
      "type": "Feature",
      "properties": {
        "n03_code": "33202",
        "name": "岡山県 倉敷市"
      },
      "geometry": {
        "type": "Polygon",
        "coordinates": [
          [
            [
              133.66310311241887,
              34.518136829551224
            ],
            [
              133.66274697819063,
              34.51746819799911
            ],
            [
              133.6625556681098,
              34.51816825186347
            ],
            [
              133.66310311241887,
              34.518136829551224
            ]
          ]
        ]
      }
    },
    {
      "type": "Feature",
      "properties": {
        "n03_code": "33202",
        "name": "岡山県 倉敷市"
      },
      "geometry": {
        "type": "Polygon",
        "coordinates": [
          [
            [
              133.8249999997504,
              34.66917474851601
            ],
            [
              133.83540666668455,
              34.661366387548924
            ],
            [
              133.8391441627731,
              34.633869441521654
            ],
            [
              133.80176000002416,
              34.60880833353792
            ],
            [
              133.80715360575448,
              34.596688333100246
            ],
            [
              133.8244119456549,
              34.59628277572966
            ],
            [
              133.82459306102112,
              34.590593613204874
            ],
            [
              133.83828639390208,
              34.5992244410553
            ],
            [
              133.84319360580048,
              34.58132833343598
            ],
            [
              133.82568722388646,
              34.56659082920356
            ],
            [
              133.83345583661776,
              34.554925829063905
            ],
            [
              133.816231115174,
              34.547331946512315
            ],
            [
              133.82969000019352,
              34.53343749554415
            ],
            [
              133.84995000009258,
              34.531877495550134
            ],
            [
              133.85378055802653,
              34.51970305465244
            ],
            [
              133.86597277582314,
              34.51937610792123
            ],
            [
              133.8704294417655,
              34.493134441001814
            ],
            [
              133.86061722400586,
              34.492998333106755
            ],
            [
              133.85841916940933,
              34.48189333361063
            ],
            [
              133.87779944169108,
              34.473085829447655
            ],
            [
              133.88014114050145,
              34.45684145896632
            ],
            [
              133.86714399529933,
              34.467276198238096
            ],
            [
              133.83157505744316,
              34.47013741471011
            ],
            [
              133.82959535644068,
              34.47572691886239
            ],
            [
              133.81506328074602,
              34.46783638683996
            ],
            [
              133.80754396907912,
              34.45769233363444
            ],
            [
              133.82243466922478,
              34.42972605391441
            ],
            [
              133.7851587156024,
              34.436083252640174
            ],
            [
              133.76663294405535,
              34.472319000022026
            ],
            [
              133.75814092116673,
              34.468515495493875
            ],
            [
              133.75957780756994,
              34.48584661303096
            ],
            [
              133.74832855951558,
              34.489466467903355
            ],
            [
              133.7396174186092,
              34.52517794650521
            ],
            [
              133.7350398828845,
              34.49857438699854
            ],
            [
              133.71898058388706,
              34.5038789193768
            ],
            [
              133.71895888504469,
              34.49640322572844
            ],
            [
              133.73717666667005,
              34.490575278926144
            ],
            [
              133.74113238685038,
              34.47009219859626
            ],
            [
              133.70403005184562,
              34.47782669464641
            ],
            [
              133.70533411197982,
              34.52306349558404
            ],
            [
              133.67892072581105,
              34.52429986554654
            ],
            [
              133.69067481189325,
              34.519638640710866
            ],
            [
              133.69027992228075,
              34.50482972131476
            ],
            [
              133.69045566779505,
              34.51237758645664
            ],
            [
              133.67019499430376,
              34.50734589219934
            ],
            [
              133.67697518825446,
              34.51833105433485
            ],
            [
              133.65944224396458,
              34.520809802630424
            ],
            [
              133.64865756229688,
              34.50403874868948
            ],
            [
              133.62641377397665,
              34.50146238707964
            ],
            [
              133.617353061195,
              34.49125989233033
            ],
            [
              133.60373940285137,
              34.49514339605105
            ],
            [
              133.60253861186766,
              34.50283138725888
            ],
            [
              133.617494720605,
              34.50731610845179
            ],
            [
              133.65019055744847,
              34.54525138744174
            ],
            [
              133.64273055786907,
              34.54811861318359
            ],
            [
              133.64793166011816,
              34.55723555967353
            ],
            [
              133.62294138813468,
              34.578996108084084
            ],
            [
              133.64937722407979,
              34.59625110790245
            ],
            [
              133.6377499999627,
              34.608153054220224
            ],
            [
              133.63277165978445,
              34.64257082928049
            ],
            [
              133.66413306099219,
              34.648304721385955
            ],
            [
              133.69318944223915,
              34.66439638698381
            ],
            [
              133.70188972742915,
              34.65701833362937
            ],
            [
              133.7167752789561,
              34.65914389207711
            ],
            [
              133.7272397282311,
              34.6468491623591
            ],
            [
              133.73112221751649,
              34.622158054350905
            ],
            [
              133.74589944210572,
              34.62229805451176
            ],
            [
              133.76257805383432,
              34.64475166725583
            ],
            [
              133.7987894421792,
              34.64046333371607
            ],
            [
              133.80127666658507,
              34.662598892225276
            ],
            [
              133.8249999997504,
              34.66917474851601
            ]
          ]
        ]
      }
    }
  ]
}
