{
"type": "FeatureCollection",
"name": "P29-21_33",
"crs": { "type": "name", "properties": { "name": "urn:ogc:def:crs:EPSG::6668" } },
"features": [
{ "type": "Feature", "properties": { "P29_001": "33100", "P29_002": "A133110000014", "P29_003": 16011, "P29_004": "岡山大学教育学部附属幼稚園", "P29_005": "岡山市中区東山2-9-20", "P29_006": 1, "P29_007": 1 }, "geometry": { "type": "Point", "coordinates": [ 133.942844, 34.654705 ] } },
{ "type": "Feature", "properties": { "P29_001": "33100", "P29_002": "A133210000012", "P29_003": 16011, "P29_004": "旭東幼稚園", "P29_005": "岡山市中区門田屋敷本町1-5", "P29_006": 3, "P29_007": 1 }, "geometry": { "type": "Point", "coordinates": [ 133.936558, 34.65507 ] } },
{ "type": "Feature", "properties": { "P29_001": "33100", "P29_002": "A133210000021", "P29_003": 16011, "P29_004": "三勲幼稚園", "P29_005": "岡山市中区国富1-7-13", "P29_006": 3, "P29_007": 1 }, "geometry": { "type": "Point", "coordinates": [ 133.944535, 34.661968 ] } },
{ "type": "Feature", "properties": { "P29_001": "33100", "P29_002": "A133210000030", "P29_003": 16011, "P29_004": "操南幼稚園", "P29_005": "岡山市中区藤崎65-5", "P29_006": 3, "P29_007": 1 }, "geometry": { "type": "Point", "coordinates": [ 133.965817, 34.630477 ] } },
{ "type": "Feature", "properties": { "P29_001": "33100", "P29_002": "A133210000049", "P29_003": 16011, "P29_004": "富山幼稚園", "P29_005": "岡山市中区福泊233", "P29_006": 3, "P29_007": 1 }, "geometry": { "type": "Point", "coordinates": [ 133.973373, 34.655188 ] } },
{ "type": "Feature", "properties": { "P29_001": "33100", "P29_002": "A133210000058", "P29_003": 16011, "P29_004": "大野幼稚園", "P29_005": "岡山市北区大安寺南町2-8-23", "P29_006": 3, "P29_007": 1 }, "geometry": { "type": "Point", "coordinates": [ 133.886522, 34.66061 ] } },
{ "type": "Feature", "properties": { "P29_001": "33100", "P29_002": "A133210000067", "P29_003": 16011, "P29_004": "芳田幼稚園", "P29_005": "岡山市南区泉田411", "P29_006": 3, "P29_007": 1 }, "geometry": { "type": "Point", "coordinates": [ 133.907021, 34.627373 ] } },
{ "type": "Feature", "properties": { "P29_001": "33100", "P29_002": "A133210000076", "P29_003": 16011, "P29_004": "財田幼稚園", "P29_005": "岡山市中区長岡138-2", "P29_006": 3, "P29_007": 1 }, "geometry": { "type": "Point", "coordinates": [ 133.986041, 34.683671 ] } },
{ "type": "Feature", "properties": { "P29_001": "33100", "P29_002": "A133210000085", "P29_003": 16011, "P29_004": "幡多幼稚園", "P29_005": "岡山市中区高屋220-3", "P29_006": 3, "P29_007": 1 }, "geometry": { "type": "Point", "coordinates": [ 133.967977, 34.676058 ] } },
{ "type": "Feature", "properties": { "P29_001": "33100", "P29_002": "A133210000094", "P29_003": 16011, "P29_004": "小串幼稚園", "P29_005": "岡山市南区小串3489", "P29_006": 3, "P29_007": 9 }, "geometry": { "type": "Point", "coordinates": [ 134.027332, 34.595924 ] } },
{ "type": "Feature", "properties": { "P29_001": "33100", "P29_002": "A133210000101", "P29_003": 16011, "P29_004": "浦安幼稚園", "P29_005": "岡山市南区浦安本町204-3", "P29_006": 3, "P29_007": 1 }, "geometry": { "type": "Point", "coordinates": [ 133.920286, 34.603143 ] } },
{ "type": "Feature", "properties": { "P29_001": "33100", "P29_002": "A133210000110", "P29_003": 16011, "P29_004": "福浜幼稚園", "P29_005": "岡山市南区福富東2-1-1", "P29_006": 3, "P29_007": 1 }, "geometry": { "type": "Point", "coordinates": [ 133.93832, 34.622572 ] } },
{ "type": "Feature", "properties": { "P29_001": "33100", "P29_002": "A133210000129", "P29_003": 16011, "P29_004": "御野幼稚園", "P29_005": "岡山市北区北方4-1-1", "P29_006": 3, "P29_007": 1 }, "geometry": { "type": "Point", "coordinates": [ 133.932211, 34.684692 ] } },
{ "type": "Feature", "properties": { "P29_001": "33100", "P29_002": "A133210000138", "P29_003": 16011, "P29_004": "石井幼稚園", "P29_005": "岡山市北区富町2-9-30", "P29_006": 3, "P29_007": 1 }, "geometry": { "type": "Point", "coordinates": [ 133.910375, 34.6653 ] } },
{ "type": "Feature", "properties": { "P29_001": "33100", "P29_002": "A133210000147", "P29_003": 16011, "P29_004": "三門幼稚園", "P29_005": "岡山市北区下伊福西町1-30", "P29_006": 3, "P29_007": 1 }, "geometry": { "type": "Point", "coordinates": [ 133.901528, 34.664658 ] } },
{ "type": "Feature", "properties": { "P29_001": "33100", "P29_002": "A133210000156", "P29_003": 16011, "P29_004": "大元幼稚園", "P29_005": "岡山市北区大元上町9-18", "P29_006": 3, "P29_007": 1 }, "geometry": { "type": "Point", "coordinates": [ 133.900066, 34.648884 ] } },
{ "type": "Feature", "properties": { "P29_001": "33100", "P29_002": "A133210000165", "P29_003": 16011, "P29_004": "平井幼稚園", "P29_005": "岡山市中区平井3-927-1", "P29_006": 3, "P29_007": 1 }, "geometry": { "type": "Point", "coordinates": [ 133.949515, 34.637476 ] } },
{ "type": "Feature", "properties": { "P29_001": "33100", "P29_002": "A133210000174", "P29_003": 16011, "P29_004": "牧石幼稚園", "P29_005": "岡山市北区玉柏2094-2", "P29_006": 3, "P29_007": 1 }, "geometry": { "type": "Point", "coordinates": [ 133.951026, 34.715734 ] } },
{ "type": "Feature", "properties": { "P29_001": "33100", "P29_002": "A133210000183", "P29_003": 16011, "P29_004": "妹尾幼稚園", "P29_005": "岡山市南区箕島1024-2", "P29_006": 3, "P29_007": 1 }, "geometry": { "type": "Point", "coordinates": [ 133.860425, 34.610651 ] } },
{ "type": "Feature", "properties": { "P29_001": "33100", "P29_002": "A133210000192", "P29_003": 16011, "P29_004": "芳泉幼稚園", "P29_005": "岡山市南区芳泉3-2-5", "P29_006": 3, "P29_007": 1 }, "geometry": { "type": "Point", "coordinates": [ 133.916634, 34.621444 ] } },
{ "type": "Feature", "properties": { "P29_001": "33100", "P29_002": "A133210000209", "P29_003": 16011, "P29_004": "平福幼稚園", "P29_005": "岡山市南区平福2-4-7", "P29_006": 3, "P29_007": 1 }, "geometry": { "type": "Point", "coordinates": [ 133.950049, 34.617703 ] } },
{ "type": "Feature", "properties": { "P29_001": "33100", "P29_002": "A133210000218", "P29_003": 16011, "P29_004": "操明幼稚園", "P29_005": "岡山市中区藤崎721-3", "P29_006": 3, "P29_007": 1 }, "geometry": { "type": "Point", "coordinates": [ 133.975013, 34.616938 ] } },
{ "type": "Feature", "properties": { "P29_001": "33100", "P29_002": "A133210000227", "P29_003": 16011, "P29_004": "旭操幼稚園", "P29_005": "岡山市中区倉富171-2", "P29_006": 3, "P29_007": 1 }, "geometry": { "type": "Point", "coordinates": [ 133.970494, 34.645429 ] } },
{ "type": "Feature", "properties": { "P29_001": "33100", "P29_002": "A133210000236", "P29_003": 16011, "P29_004": "芥子山幼稚園", "P29_005": "岡山市東区西大寺松崎144-1", "P29_006": 3, "P29_007": 1 }, "geometry": { "type": "Point", "coordinates": [ 134.012487, 34.662677 ] } },
{ "type": "Feature", "properties": { "P29_001": "33100", "P29_002": "A133210000753", "P29_003": 16011, "P29_004": "可知幼稚園", "P29_005": "岡山市東区可知1-390", "P29_006": 3, "P29_007": 1 }, "geometry": { "type": "Point", "coordinates": [ 134.000896, 34.660597 ] } },
{ "type": "Feature", "properties": { "P29_001": "33100", "P29_002": "A133210000762", "P29_003": 16011, "P29_004": "政田幼稚園", "P29_005": "岡山市東区政津961-19", "P29_006": 3, "P29_007": 1 }, "geometry": { "type": "Point", "coordinates": [ 134.003653, 34.633561 ] } },
{ "type": "Feature", "properties": { "P29_001": "33100", "P29_002": "A133210000771", "P29_003": 16011, "P29_004": "開成幼稚園", "P29_005": "岡山市東区金田1521-1", "P29_006": 3, "P29_007": 1 }, "geometry": { "type": "Point", "coordinates": [ 134.023509, 34.627137 ] } },
{ "type": "Feature", "properties": { "P29_001": "33100", "P29_002": "A133210000780", "P29_003": 16011, "P29_004": "西大寺幼稚園", "P29_005": "岡山市東区西大寺上1-19-23", "P29_006": 3, "P29_007": 1 }, "geometry": { "type": "Point", "coordinates": [ 134.031598, 34.657337 ] } },
{ "type": "Feature", "properties": { "P29_001": "33100", "P29_002": "A133210000799", "P29_003": 16011, "P29_004": "西大寺南幼稚園", "P29_005": "岡山市東区金岡西町435-1", "P29_006": 3, "P29_007": 1 }, "geometry": { "type": "Point", "coordinates": [ 134.025722, 34.642583 ] } },
{ "type": "Feature", "properties": { "P29_001": "33100", "P29_002": "A133210000806", "P29_003": 16011, "P29_004": "雄神幼稚園", "P29_005": "岡山市東区富崎671", "P29_006": 3, "P29_007": 1 }, "geometry": { "type": "Point", "coordinates": [ 134.041961, 34.671111 ] } },
{ "type": "Feature", "properties": { "P29_001": "33100", "P29_002": "A133210000815", "P29_003": 16011, "P29_004": "豊幼稚園", "P29_005": "岡山市東区西大寺川口279", "P29_006": 3, "P29_007": 1 }, "geometry": { "type": "Point", "coordinates": [ 134.046342, 34.649282 ] } },
{ "type": "Feature", "properties": { "P29_001": "33100", "P29_002": "A133210000824", "P29_003": 16011, "P29_004": "幸島幼稚園", "P29_005": "岡山市東区水門町558-1", "P29_006": 3, "P29_007": 9 }, "geometry": { "type": "Point", "coordinates": [ 134.062916, 34.611205 ] } },
{ "type": "Feature", "properties": { "P29_001": "33100", "P29_002": "A133210000833", "P29_003": 16011, "P29_004": "朝日幼稚園", "P29_005": "岡山市東区西片岡671-1", "P29_006": 3, "P29_007": 9 }, "geometry": { "type": "Point", "coordinates": [ 134.083505, 34.603498 ] } },
{ "type": "Feature", "properties": { "P29_001": "33100", "P29_002": "A133210000842", "P29_003": 16011, "P29_004": "大宮幼稚園", "P29_005": "岡山市東区下阿知891", "P29_006": 3, "P29_007": 9 }, "geometry": { "type": "Point", "coordinates": [ 134.098545, 34.625432 ] } },
{ "type": "Feature", "properties": { "P29_001": "33100", "P29_002": "A133210001235", "P29_003": 16011, "P29_004": "馬屋下幼稚園", "P29_005": "岡山市北区大窪50-1", "P29_006": 3, "P29_007": 1 }, "geometry": { "type": "Point", "coordinates": [ 133.8615, 34.695507 ] } },
{ "type": "Feature", "properties": { "P29_001": "33100", "P29_002": "A133210001244", "P29_003": 16011, "P29_004": "平津幼稚園", "P29_005": "岡山市北区楢津2232-2", "P29_006": 3, "P29_007": 1 }, "geometry": { "type": "Point", "coordinates": [ 133.883018, 34.681883 ] } },
{ "type": "Feature", "properties": { "P29_001": "33100", "P29_002": "A133210001253", "P29_003": 16011, "P29_004": "横井幼稚園", "P29_005": "岡山市北区横井上194", "P29_006": 3, "P29_007": 1 }, "geometry": { "type": "Point", "coordinates": [ 133.90378, 34.705992 ] } },
{ "type": "Feature", "properties": { "P29_001": "33100", "P29_002": "A133210001262", "P29_003": 16011, "P29_004": "野谷幼稚園", "P29_005": "岡山市北区栢谷1722", "P29_006": 3, "P29_007": 9 }, "geometry": { "type": "Point", "coordinates": [ 133.903621, 34.73137 ] } },
{ "type": "Feature", "properties": { "P29_001": "33100", "P29_002": "A133210001440", "P29_003": 16011, "P29_004": "平島幼稚園", "P29_005": "岡山市東区東平島1269-3", "P29_006": 3, "P29_007": 1 }, "geometry": { "type": "Point", "coordinates": [ 134.048536, 34.714248 ] } },
{ "type": "Feature", "properties": { "P29_001": "33100", "P29_002": "A133210001459", "P29_003": 16011, "P29_004": "御休幼稚園", "P29_005": "岡山市東区西祖187-1", "P29_006": 3, "P29_007": 1 }, "geometry": { "type": "Point", "coordinates": [ 134.072563, 34.70906 ] } },
{ "type": "Feature", "properties": { "P29_001": "33100", "P29_002": "A133210001468", "P29_003": 16011, "P29_004": "角山幼稚園", "P29_005": "岡山市東区才崎360-1", "P29_006": 3, "P29_007": 9 }, "geometry": { "type": "Point", "coordinates": [ 134.06365, 34.69187 ] } },
{ "type": "Feature", "properties": { "P29_001": "33100", "P29_002": "A133210001486", "P29_003": 16011, "P29_004": "吉備東幼稚園", "P29_005": "岡山市北区庭瀬210-2", "P29_006": 3, "P29_007": 1 }, "geometry": { "type": "Point", "coordinates": [ 133.851213, 34.648171 ] } },
{ "type": "Feature", "properties": { "P29_001": "33100", "P29_002": "A133210001495", "P29_003": 16011, "P29_004": "吉備西幼稚園", "P29_005": "岡山市北区撫川1243-2", "P29_006": 3, "P29_007": 1 }, "geometry": { "type": "Point", "coordinates": [ 133.841463, 34.642136 ] } },
{ "type": "Feature", "properties": { "P29_001": "33100", "P29_002": "A133210001529", "P29_003": 16011, "P29_004": "福田幼稚園", "P29_005": "岡山市南区古新田1190-1", "P29_006": 3, "P29_007": 1 }, "geometry": { "type": "Point", "coordinates": [ 133.87233, 34.625336 ] } },
{ "type": "Feature", "properties": { "P29_001": "33100", "P29_002": "A133210001627", "P29_003": 16011, "P29_004": "鯉山幼稚園", "P29_005": "岡山市北区吉備津1736-5", "P29_006": 3, "P29_007": 1 }, "geometry": { "type": "Point", "coordinates": [ 133.845079, 34.670402 ] } },
{ "type": "Feature", "properties": { "P29_001": "33100", "P29_002": "A133210001636", "P29_003": 16011, "P29_004": "加茂幼稚園", "P29_005": "岡山市北区加茂1104-1", "P29_006": 3, "P29_007": 1 }, "geometry": { "type": "Point", "coordinates": [ 133.822827, 34.67591 ] } },
{ "type": "Feature", "properties": { "P29_001": "33100", "P29_002": "A133210001645", "P29_003": 16011, "P29_004": "庄内幼稚園", "P29_005": "岡山市北区三手15-1", "P29_006": 3, "P29_007": 1 }, "geometry": { "type": "Point", "coordinates": [ 133.814856, 34.687008 ] } },
{ "type": "Feature", "properties": { "P29_001": "33100", "P29_002": "A133210001654", "P29_003": 16011, "P29_004": "足守幼稚園", "P29_005": "岡山市北区足守1588-1", "P29_006": 3, "P29_007": 1 }, "geometry": { "type": "Point", "coordinates": [ 133.805533, 34.724214 ] } },
{ "type": "Feature", "properties": { "P29_001": "33100", "P29_002": "A133210001869", "P29_003": 16011, "P29_004": "竜之口幼稚園", "P29_005": "岡山市中区四御神266", "P29_006": 3, "P29_007": 1 }, "geometry": { "type": "Point", "coordinates": [ 133.977353, 34.694781 ] } },
{ "type": "Feature", "properties": { "P29_001": "33100", "P29_002": "A133210001878", "P29_003": 16011, "P29_004": "芳明幼稚園", "P29_005": "岡山市南区万倍98", "P29_006": 3, "P29_007": 1 }, "geometry": { "type": "Point", "coordinates": [ 133.900524, 34.627981 ] } },
{ "type": "Feature", "properties": { "P29_001": "33100", "P29_002": "A133210001896", "P29_003": 16011, "P29_004": "桃丘幼稚園", "P29_005": "岡山市北区芳賀5112-2", "P29_006": 3, "P29_007": 1 }, "geometry": { "type": "Point", "coordinates": [ 133.877926, 34.70908 ] } },
{ "type": "Feature", "properties": { "P29_001": "33100", "P29_002": "A133310000010", "P29_003": 16011, "P29_004": "岡山聖園マリア幼稚園", "P29_005": "岡山市北区天神町6-34", "P29_006": 4, "P29_007": 0 }, "geometry": { "type": "Point", "coordinates": [ 133.928547, 34.667773 ] } },
{ "type": "Feature", "properties": { "P29_001": "33100", "P29_002": "A133310000029", "P29_003": 16011, "P29_004": "みその学園岡山聖園幼稚園", "P29_005": "岡山市北区清輝橋3-8-26", "P29_006": 4, "P29_007": 0 }, "geometry": { "type": "Point", "coordinates": [ 133.923813, 34.648082 ] } },
{ "type": "Feature", "properties": { "P29_001": "33100", "P29_002": "A133310000038", "P29_003": 16011, "P29_004": "内山下幼稚園", "P29_005": "岡山市北区丸の内2-6-5", "P29_006": 4, "P29_007": 0 }, "geometry": { "type": "Point", "coordinates": [ 133.934281, 34.66332 ] } },
{ "type": "Feature", "properties": { "P29_001": "33100", "P29_002": "A133310000047", "P29_003": 16011, "P29_004": "あけぼの幼稚園", "P29_005": "岡山市南区築港栄町23-32", "P29_006": 4, "P29_007": 0 }, "geometry": { "type": "Point", "coordinates": [ 133.943286, 34.605749 ] } },
{ "type": "Feature", "properties": { "P29_001": "33100", "P29_002": "A133310000056", "P29_003": 16011, "P29_004": "つしま幼稚園", "P29_005": "岡山市北区津島南1-3-9", "P29_006": 4, "P29_007": 0 }, "geometry": { "type": "Point", "coordinates": [ 133.91354, 34.681967 ] } },
{ "type": "Feature", "properties": { "P29_001": "33100", "P29_002": "A133310000065", "P29_003": 16011, "P29_004": "ノートルダム清心女子大学附属幼稚園", "P29_005": "岡山市北区伊福町2-16-9", "P29_006": 4, "P29_007": 0 }, "geometry": { "type": "Point", "coordinates": [ 133.915804, 34.672371 ] } },
{ "type": "Feature", "properties": { "P29_001": "33100", "P29_002": "A133310000074", "P29_003": 16011, "P29_004": "第一ひかり幼稚園", "P29_005": "岡山市南区築港新町2-17-10", "P29_006": 4, "P29_007": 0 }, "geometry": { "type": "Point", "coordinates": [ 133.935262, 34.603268 ] } },
{ "type": "Feature", "properties": { "P29_001": "33100", "P29_002": "A133310000083", "P29_003": 16011, "P29_004": "山陽学園短期大学附属幼稚園", "P29_005": "岡山市中区平井1-13-69", "P29_006": 4, "P29_007": 0 }, "geometry": { "type": "Point", "coordinates": [ 133.943588, 34.644567 ] } },
{ "type": "Feature", "properties": { "P29_001": "33100", "P29_002": "A133310000092", "P29_003": 16011, "P29_004": "第二ひかり幼稚園", "P29_005": "岡山市南区浦安本町33", "P29_006": 4, "P29_007": 0 }, "geometry": { "type": "Point", "coordinates": [ 133.931119, 34.609697 ] } },
{ "type": "Feature", "properties": { "P29_001": "33100", "P29_002": "A133310000109", "P29_003": 16011, "P29_004": "中仙道幼稚園", "P29_005": "岡山市北区中仙道2-10-17", "P29_006": 4, "P29_007": 0 }, "geometry": { "type": "Point", "coordinates": [ 133.88387, 34.645614 ] } },
{ "type": "Feature", "properties": { "P29_001": "33100", "P29_002": "A133310000118", "P29_003": 16011, "P29_004": "朝日塾幼稚園", "P29_005": "岡山市南区万倍30-20", "P29_006": 4, "P29_007": 0 }, "geometry": { "type": "Point", "coordinates": [ 133.900196, 34.625148 ] } },
{ "type": "Feature", "properties": { "P29_001": "33100", "P29_002": "A133310000127", "P29_003": 16011, "P29_004": "のぞみ学園　しいのみ幼稚園", "P29_005": "岡山市東区上道北方590", "P29_006": 4, "P29_007": 0 }, "geometry": { "type": "Point", "coordinates": [ 134.020697, 34.695597 ] } },
{ "type": "Feature", "properties": { "P29_001": "33100", "P29_002": "A133310000305", "P29_003": 16011, "P29_004": "就実大学・就実短期大学附属幼稚園", "P29_005": "岡山市中区西川原15-1", "P29_006": 4, "P29_007": 0 }, "geometry": { "type": "Point", "coordinates": [ 133.935046, 34.679051 ] } },
{ "type": "Feature", "properties": { "P29_001": "33100", "P29_002": "A233210000137", "P29_003": 16013, "P29_004": "中山認定こども園", "P29_005": "岡山市北区一宮638-4", "P29_006": 3, "P29_007": 1 }, "geometry": { "type": "Point", "coordinates": [ 133.867468, 34.677218 ] } },
{ "type": "Feature", "properties": { "P29_001": "33100", "P29_002": "A233210000146", "P29_003": 16013, "P29_004": "御津金川認定こども園", "P29_005": "岡山市北区御津金川476", "P29_006": 3, "P29_007": 1 }, "geometry": { "type": "Point", "coordinates": [ 133.931679, 34.796684 ] } },
{ "type": "Feature", "properties": { "P29_001": "33100", "P29_002": "A233210000155", "P29_003": 16013, "P29_004": "太伯認定こども園", "P29_005": "岡山市東区神崎町22-1", "P29_006": 3, "P29_007": 1 }, "geometry": { "type": "Point", "coordinates": [ 134.058774, 34.629137 ] } },
{ "type": "Feature", "properties": { "P29_001": "33100", "P29_002": "A233210000164", "P29_003": 16013, "P29_004": "灘崎認定こども園", "P29_005": "岡山市南区片岡188", "P29_006": 3, "P29_007": 1 }, "geometry": { "type": "Point", "coordinates": [ 133.866789, 34.543242 ] } },
{ "type": "Feature", "properties": { "P29_001": "33100", "P29_002": "A233210000217", "P29_003": 16013, "P29_004": "岡南認定こども園", "P29_005": "岡山市北区七日市西町1-14", "P29_006": 3, "P29_007": 1 }, "geometry": { "type": "Point", "coordinates": [ 133.927897, 34.641105 ] } },
{ "type": "Feature", "properties": { "P29_001": "33100", "P29_002": "A233210000280", "P29_003": 16013, "P29_004": "建部認定こども園", "P29_005": "岡山市北区建部町市場330", "P29_006": 3, "P29_007": 1 }, "geometry": { "type": "Point", "coordinates": [ 133.901641, 34.852344 ] } },
{ "type": "Feature", "properties": { "P29_001": "33100", "P29_002": "A233210000333", "P29_003": 16013, "P29_004": "南方岡山中央認定こども園", "P29_005": "岡山市北区南方1-3-30", "P29_006": 3, "P29_007": 1 }, "geometry": { "type": "Point", "coordinates": [ 133.923745, 34.673102 ] } },
{ "type": "Feature", "properties": { "P29_001": "33100", "P29_002": "A233210000342", "P29_003": 16013, "P29_004": "甲浦認定こども園", "P29_005": "岡山市南区飽浦322-1", "P29_006": 3, "P29_007": 1 }, "geometry": { "type": "Point", "coordinates": [ 133.971724, 34.591593 ] } },
{ "type": "Feature", "properties": { "P29_001": "33100", "P29_002": "A233210000351", "P29_003": 16013, "P29_004": "千種認定こども園", "P29_005": "岡山市東区瀬戸町鍛冶屋178-1", "P29_006": 3, "P29_007": 1 }, "geometry": { "type": "Point", "coordinates": [ 134.072654, 34.759817 ] } },
{ "type": "Feature", "properties": { "P29_001": "33100", "P29_002": "A233210000360", "P29_003": 16013, "P29_004": "興除認定こども園", "P29_005": "岡山市南区中畦645-11", "P29_006": 3, "P29_007": 1 }, "geometry": { "type": "Point", "coordinates": [ 133.856303, 34.591909 ] } },
{ "type": "Feature", "properties": { "P29_001": "33100", "P29_002": "A233210000379", "P29_003": 16013, "P29_004": "錦認定こども園", "P29_005": "岡山市南区藤田610-11", "P29_006": 3, "P29_007": 1 }, "geometry": { "type": "Point", "coordinates": [ 133.893902, 34.60644 ] } },
{ "type": "Feature", "properties": { "P29_001": "33100", "P29_002": "A233210000431", "P29_003": 16013, "P29_004": "伊島認定こども園", "P29_005": "岡山市北区いずみ町9-18", "P29_006": 3, "P29_007": 1 }, "geometry": { "type": "Point", "coordinates": [ 133.914048, 34.676819 ] } },
{ "type": "Feature", "properties": { "P29_001": "33100", "P29_002": "A233210000486", "P29_003": 16013, "P29_004": "今認定こども園", "P29_005": "岡山市北区今7-16-43", "P29_006": 3, "P29_007": 1 }, "geometry": { "type": "Point", "coordinates": [ 133.893367, 34.641774 ] } },
{ "type": "Feature", "properties": { "P29_001": "33100", "P29_002": "A233210000495", "P29_003": 16013, "P29_004": "鹿田認定こども園", "P29_005": "岡山市北区大供表町16-10", "P29_006": 3, "P29_007": 1 }, "geometry": { "type": "Point", "coordinates": [ 133.913627, 34.653016 ] } },
{ "type": "Feature", "properties": { "P29_001": "33100", "P29_002": "A233210000501", "P29_003": 16013, "P29_004": "旭竜認定こども園", "P29_005": "岡山市中区高島1-5-7", "P29_006": 3, "P29_007": 1 }, "geometry": { "type": "Point", "coordinates": [ 133.950426, 34.684609 ] } },
{ "type": "Feature", "properties": { "P29_001": "33100", "P29_002": "A233210000510", "P29_003": 16013, "P29_004": "宇野認定こども園", "P29_005": "岡山市中区西川原351-12", "P29_006": 3, "P29_007": 1 }, "geometry": { "type": "Point", "coordinates": [ 133.941074, 34.675845 ] } },
{ "type": "Feature", "properties": { "P29_001": "33100", "P29_002": "A233210000565", "P29_003": 16013, "P29_004": "陵南認定こども園", "P29_005": "岡山市北区東花尻266-1", "P29_006": 3, "P29_007": 1 }, "geometry": { "type": "Point", "coordinates": [ 133.862745, 34.65116 ] } },
{ "type": "Feature", "properties": { "P29_001": "33100", "P29_002": "A233310000037", "P29_003": 16013, "P29_004": "認定こども園白ゆり", "P29_005": "岡山市北区辛川市場321-1", "P29_006": 4, "P29_007": 0 }, "geometry": { "type": "Point", "coordinates": [ 133.867187, 34.685869 ] } },
{ "type": "Feature", "properties": { "P29_001": "33100", "P29_002": "A233310000055", "P29_003": 16013, "P29_004": "岡北学園", "P29_005": "岡山市北区津島東2-2-20", "P29_006": 4, "P29_007": 0 }, "geometry": { "type": "Point", "coordinates": [ 133.927795, 34.68973 ] } },
{ "type": "Feature", "properties": { "P29_001": "33100", "P29_002": "A233310000064", "P29_003": 16013, "P29_004": "若草幼児舎", "P29_005": "岡山市北区富町2-14-9", "P29_006": 4, "P29_007": 0 }, "geometry": { "type": "Point", "coordinates": [ 133.908828, 34.664741 ] } },
{ "type": "Feature", "properties": { "P29_001": "33100", "P29_002": "A233310000073", "P29_003": 16013, "P29_004": "めぐみ幼保連携型認定こども園", "P29_005": "岡山市東区久保408-1", "P29_006": 4, "P29_007": 0 }, "geometry": { "type": "Point", "coordinates": [ 134.043911, 34.664497 ] } },
{ "type": "Feature", "properties": { "P29_001": "33100", "P29_002": "A233310000082", "P29_003": 16013, "P29_004": "めぐみ第二幼保連携型認定こども園", "P29_005": "岡山市東区久保411-1", "P29_006": 4, "P29_007": 0 }, "geometry": { "type": "Point", "coordinates": [ 134.044014, 34.664434 ] } },
{ "type": "Feature", "properties": { "P29_001": "33100", "P29_002": "A233310000108", "P29_003": 16013, "P29_004": "御南認定こども園", "P29_005": "岡山市北区今保247-1", "P29_006": 4, "P29_007": 0 }, "geometry": { "type": "Point", "coordinates": [ 133.873125, 34.640398 ] } },
{ "type": "Feature", "properties": { "P29_001": "33100", "P29_002": "A233310000117", "P29_003": 16013, "P29_004": "こども園城東チャイルドセンター", "P29_005": "岡山市中区長利194-1", "P29_006": 4, "P29_007": 0 }, "geometry": { "type": "Point", "coordinates": [ 133.998999, 34.677584 ] } },
{ "type": "Feature", "properties": { "P29_001": "33100", "P29_002": "A233310000153", "P29_003": 16013, "P29_004": "弘西こども園", "P29_005": "岡山市北区弓之町9-2", "P29_006": 4, "P29_007": 0 }, "geometry": { "type": "Point", "coordinates": [ 133.928023, 34.669994 ] } },
{ "type": "Feature", "properties": { "P29_001": "33100", "P29_002": "A233310000162", "P29_003": 16013, "P29_004": "江西桜こども園", "P29_005": "岡山市東区瀬戸町下286-1", "P29_006": 4, "P29_007": 0 }, "geometry": { "type": "Point", "coordinates": [ 134.043958, 34.726717 ] } },
{ "type": "Feature", "properties": { "P29_001": "33100", "P29_002": "A233310000171", "P29_003": 16013, "P29_004": "こじかこども園", "P29_005": "岡山市北区大供本町715-5", "P29_006": 4, "P29_007": 0 }, "geometry": { "type": "Point", "coordinates": [ 133.910931, 34.652682 ] } },
{ "type": "Feature", "properties": { "P29_001": "33100", "P29_002": "A233310000180", "P29_003": 16013, "P29_004": "ふたばこども園", "P29_005": "岡山市北区平田122-102", "P29_006": 4, "P29_007": 0 }, "geometry": { "type": "Point", "coordinates": [ 133.891406, 34.63245 ] } },
{ "type": "Feature", "properties": { "P29_001": "33100", "P29_002": "A233310000199", "P29_003": 16013, "P29_004": "第一吉備こども園", "P29_005": "岡山市北区平野1071-1", "P29_006": 4, "P29_007": 0 }, "geometry": { "type": "Point", "coordinates": [ 133.856935, 34.651643 ] } },
{ "type": "Feature", "properties": { "P29_001": "33100", "P29_002": "A233310000206", "P29_003": 16013, "P29_004": "第二吉備こども園", "P29_005": "岡山市北区庭瀬1032-1", "P29_006": 4, "P29_007": 0 }, "geometry": { "type": "Point", "coordinates": [ 133.854066, 34.640286 ] } },
{ "type": "Feature", "properties": { "P29_001": "33100", "P29_002": "A233310000215", "P29_003": 16013, "P29_004": "とみやまこども園", "P29_005": "岡山市中区福泊138-2", "P29_006": 4, "P29_007": 0 }, "geometry": { "type": "Point", "coordinates": [ 133.978009, 34.655786 ] } },
{ "type": "Feature", "properties": { "P29_001": "33100", "P29_002": "A233310000260", "P29_003": 16013, "P29_004": "中国学園大学・中国短期大学付属たねのくにこども園", "P29_005": "岡山市北区中撫川351", "P29_006": 4, "P29_007": 0 }, "geometry": { "type": "Point", "coordinates": [ 133.839233, 34.65201 ] } },
{ "type": "Feature", "properties": { "P29_001": "33100", "P29_002": "A233310000279", "P29_003": 16013, "P29_004": "御南まんまるこども園", "P29_005": "岡山市北区田中165-103", "P29_006": 4, "P29_007": 0 }, "geometry": { "type": "Point", "coordinates": [ 133.87798, 34.64192 ] } },
{ "type": "Feature", "properties": { "P29_001": "33100", "P29_002": "A233310000288", "P29_003": 16013, "P29_004": "認定こども園白ゆりの丘", "P29_005": "岡山市北区富吉2945-7", "P29_006": 4, "P29_007": 0 }, "geometry": { "type": "Point", "coordinates": [ 133.854805, 34.744466 ] } },
{ "type": "Feature", "properties": { "P29_001": "33100", "P29_002": "A233310000297", "P29_003": 16013, "P29_004": "なのはなこども園", "P29_005": "岡山市中区祇園364-1", "P29_006": 4, "P29_007": 0 }, "geometry": { "type": "Point", "coordinates": [ 133.956114, 34.69608 ] } },
{ "type": "Feature", "properties": { "P29_001": "33100", "P29_002": "A233310000304", "P29_003": 16013, "P29_004": "旭川こども園", "P29_005": "岡山市中区赤田88", "P29_006": 4, "P29_007": 0 }, "geometry": { "type": "Point", "coordinates": [ 133.959644, 34.681055 ] } },
{ "type": "Feature", "properties": { "P29_001": "33100", "P29_002": "A233310000313", "P29_003": 16013, "P29_004": "柿の木こども園", "P29_005": "岡山市中区沢田473", "P29_006": 4, "P29_007": 0 }, "geometry": { "type": "Point", "coordinates": [ 133.964177, 34.668587 ] } },
{ "type": "Feature", "properties": { "P29_001": "33100", "P29_002": "A233310000322", "P29_003": 16013, "P29_004": "ゆりかごこども園", "P29_005": "岡山市中区倉田688-3", "P29_006": 4, "P29_007": 0 }, "geometry": { "type": "Point", "coordinates": [ 133.954023, 34.635932 ] } },
{ "type": "Feature", "properties": { "P29_001": "33100", "P29_002": "A233310000331", "P29_003": 16013, "P29_004": "ちとせ認定こども園", "P29_005": "岡山市東区益野町40", "P29_006": 4, "P29_007": 0 }, "geometry": { "type": "Point", "coordinates": [ 133.999428, 34.659473 ] } },
{ "type": "Feature", "properties": { "P29_001": "33100", "P29_002": "A233310000340", "P29_003": 16013, "P29_004": "カナダこども園", "P29_005": "岡山市東区金田1127-1", "P29_006": 4, "P29_007": 0 }, "geometry": { "type": "Point", "coordinates": [ 134.020376, 34.630845 ] } },
{ "type": "Feature", "properties": { "P29_001": "33100", "P29_002": "A233310000377", "P29_003": 16013, "P29_004": "高島おひさまこども園", "P29_005": "岡山市中区国府市場164-1", "P29_006": 4, "P29_007": 0 }, "geometry": { "type": "Point", "coordinates": [ 133.964183, 34.689729 ] } },
{ "type": "Feature", "properties": { "P29_001": "33100", "P29_002": "A233310000386", "P29_003": 16013, "P29_004": "グリーン長利こども園", "P29_005": "岡山市中区長利274-1", "P29_006": 4, "P29_007": 0 }, "geometry": { "type": "Point", "coordinates": [ 133.996218, 34.673166 ] } },
{ "type": "Feature", "properties": { "P29_001": "33100", "P29_002": "A233310000448", "P29_003": 16013, "P29_004": "第三吉備こども園", "P29_005": "岡山市北区東花尻121-1", "P29_006": 4, "P29_007": 0 }, "geometry": { "type": "Point", "coordinates": [ 133.864742, 34.654188 ] } },
{ "type": "Feature", "properties": { "P29_001": "33100", "P29_002": "A233310000457", "P29_003": 16013, "P29_004": "ポエムこども園ひらつ", "P29_005": "岡山市北区楢津385-1", "P29_006": 4, "P29_007": 0 }, "geometry": { "type": "Point", "coordinates": [ 133.885243, 34.680875 ] } },
{ "type": "Feature", "properties": { "P29_001": "33100", "P29_002": "A233310000466", "P29_003": 16013, "P29_004": "おおふくこども園", "P29_005": "岡山市南区大福760-2", "P29_006": 4, "P29_007": 0 }, "geometry": { "type": "Point", "coordinates": [ 133.887939, 34.621515 ] } },
{ "type": "Feature", "properties": { "P29_001": "33100", "P29_002": "A233310000475", "P29_003": 16013, "P29_004": "古都こども園", "P29_005": "岡山市東区古都宿453-5", "P29_006": 4, "P29_007": 0 }, "geometry": { "type": "Point", "coordinates": [ 134.000886, 34.693505 ] } },
{ "type": "Feature", "properties": { "P29_001": "33100", "P29_002": "A233310000484", "P29_003": 16013, "P29_004": "原尾島こども園", "P29_005": "岡山市中区原尾島1-7-5", "P29_006": 4, "P29_007": 0 }, "geometry": { "type": "Point", "coordinates": [ 133.947634, 34.672589 ] } },
{ "type": "Feature", "properties": { "P29_001": "33100", "P29_002": "A233310000493", "P29_003": 16013, "P29_004": "浮田とちのみこども園", "P29_005": "岡山市東区沼1188", "P29_006": 4, "P29_007": 0 }, "geometry": { "type": "Point", "coordinates": [ 134.037804, 34.702194 ] } },
{ "type": "Feature", "properties": { "P29_001": "33100", "P29_002": "B133110000012", "P29_003": 16001, "P29_004": "岡山大学教育学部附属小学校", "P29_005": "岡山市中区東山2-13-80", "P29_006": 1, "P29_007": 1 }, "geometry": { "type": "Point", "coordinates": [ 133.943477, 34.653983 ] } },
{ "type": "Feature", "properties": { "P29_001": "33100", "P29_002": "B133210000010", "P29_003": 16001, "P29_004": "清輝小学校", "P29_005": "岡山市北区新道1", "P29_006": 3, "P29_007": 1 }, "geometry": { "type": "Point", "coordinates": [ 133.926451, 34.650371 ] } },
{ "type": "Feature", "properties": { "P29_001": "33100", "P29_002": "B133210000029", "P29_003": 16001, "P29_004": "旭東小学校", "P29_005": "岡山市中区門田屋敷本町1-17", "P29_006": 3, "P29_007": 1 }, "geometry": { "type": "Point", "coordinates": [ 133.937366, 34.655399 ] } },
{ "type": "Feature", "properties": { "P29_001": "33100", "P29_002": "B133210000038", "P29_003": 16001, "P29_004": "伊島小学校", "P29_005": "岡山市北区伊島町1-6-6", "P29_006": 3, "P29_007": 1 }, "geometry": { "type": "Point", "coordinates": [ 133.910813, 34.676423 ] } },
{ "type": "Feature", "properties": { "P29_001": "33100", "P29_002": "B133210000047", "P29_003": 16001, "P29_004": "石井小学校", "P29_005": "岡山市北区寿町2-8", "P29_006": 3, "P29_007": 1 }, "geometry": { "type": "Point", "coordinates": [ 133.912369, 34.66648 ] } },
{ "type": "Feature", "properties": { "P29_001": "33100", "P29_002": "B133210000056", "P29_003": 16001, "P29_004": "鹿田小学校", "P29_005": "岡山市北区大供表町16-50", "P29_006": 3, "P29_007": 1 }, "geometry": { "type": "Point", "coordinates": [ 133.914702, 34.653509 ] } },
{ "type": "Feature", "properties": { "P29_001": "33100", "P29_002": "B133210000065", "P29_003": 16001, "P29_004": "御野小学校", "P29_005": "岡山市北区中井町1-6-34", "P29_006": 3, "P29_007": 1 }, "geometry": { "type": "Point", "coordinates": [ 133.929672, 34.683006 ] } },
{ "type": "Feature", "properties": { "P29_001": "33100", "P29_002": "B133210000074", "P29_003": 16001, "P29_004": "三勲小学校", "P29_005": "岡山市中区徳吉町1-1-21", "P29_006": 3, "P29_007": 1 }, "geometry": { "type": "Point", "coordinates": [ 133.941199, 34.659843 ] } },
{ "type": "Feature", "properties": { "P29_001": "33100", "P29_002": "B133210000083", "P29_003": 16001, "P29_004": "福浜小学校", "P29_005": "岡山市南区福富東1-1-1", "P29_006": 3, "P29_007": 1 }, "geometry": { "type": "Point", "coordinates": [ 133.939395, 34.624236 ] } },
{ "type": "Feature", "properties": { "P29_001": "33100", "P29_002": "B133210000092", "P29_003": 16001, "P29_004": "宇野小学校", "P29_005": "岡山市中区原尾島1-9-1", "P29_006": 3, "P29_007": 1 }, "geometry": { "type": "Point", "coordinates": [ 133.948031, 34.673091 ] } },
{ "type": "Feature", "properties": { "P29_001": "33100", "P29_002": "B133210000109", "P29_003": 16001, "P29_004": "岡南小学校", "P29_005": "岡山市北区岡南町2-4-5", "P29_006": 3, "P29_007": 1 }, "geometry": { "type": "Point", "coordinates": [ 133.92698, 34.641511 ] } },
{ "type": "Feature", "properties": { "P29_001": "33100", "P29_002": "B133210000118", "P29_003": 16001, "P29_004": "平井小学校", "P29_005": "岡山市中区平井4-19-52", "P29_006": 3, "P29_007": 1 }, "geometry": { "type": "Point", "coordinates": [ 133.945866, 34.637845 ] } },
{ "type": "Feature", "properties": { "P29_001": "33100", "P29_002": "B133210000127", "P29_003": 16001, "P29_004": "福島小学校", "P29_005": "岡山市南区立川町3-37", "P29_006": 3, "P29_007": 1 }, "geometry": { "type": "Point", "coordinates": [ 133.947894, 34.608265 ] } },
{ "type": "Feature", "properties": { "P29_001": "33100", "P29_002": "B133210000136", "P29_003": 16001, "P29_004": "操南小学校", "P29_005": "岡山市中区藤崎45", "P29_006": 3, "P29_007": 1 }, "geometry": { "type": "Point", "coordinates": [ 133.965031, 34.630041 ] } },
{ "type": "Feature", "properties": { "P29_001": "33100", "P29_002": "B133210000145", "P29_003": 16001, "P29_004": "富山小学校", "P29_005": "岡山市中区福泊233", "P29_006": 3, "P29_007": 1 }, "geometry": { "type": "Point", "coordinates": [ 133.974335, 34.655455 ] } },
{ "type": "Feature", "properties": { "P29_001": "33100", "P29_002": "B133210000154", "P29_003": 16001, "P29_004": "牧石小学校", "P29_005": "岡山市北区玉柏2108", "P29_006": 3, "P29_007": 1 }, "geometry": { "type": "Point", "coordinates": [ 133.950892, 34.714892 ] } },
{ "type": "Feature", "properties": { "P29_001": "33100", "P29_002": "B133210000163", "P29_003": 16001, "P29_004": "大野小学校", "P29_005": "岡山市北区大安寺南町2-8-36", "P29_006": 3, "P29_007": 1 }, "geometry": { "type": "Point", "coordinates": [ 133.887705, 34.661063 ] } },
{ "type": "Feature", "properties": { "P29_001": "33100", "P29_002": "B133210000172", "P29_003": 16001, "P29_004": "西小学校", "P29_005": "岡山市北区中仙道1-18-20", "P29_006": 3, "P29_007": 1 }, "geometry": { "type": "Point", "coordinates": [ 133.887427, 34.646174 ] } },
{ "type": "Feature", "properties": { "P29_001": "33100", "P29_002": "B133210000181", "P29_003": 16001, "P29_004": "芳田小学校", "P29_005": "岡山市南区泉田408", "P29_006": 3, "P29_007": 1 }, "geometry": { "type": "Point", "coordinates": [ 133.907815, 34.627484 ] } },
{ "type": "Feature", "properties": { "P29_001": "33100", "P29_002": "B133210000190", "P29_003": 16001, "P29_004": "甲浦小学校", "P29_005": "岡山市南区飽浦250", "P29_006": 3, "P29_007": 1 }, "geometry": { "type": "Point", "coordinates": [ 133.972504, 34.590907 ] } },
{ "type": "Feature", "properties": { "P29_001": "33100", "P29_002": "B133210000207", "P29_003": 16001, "P29_004": "三門小学校", "P29_005": "岡山市北区下伊福西町5-37", "P29_006": 3, "P29_007": 1 }, "geometry": { "type": "Point", "coordinates": [ 133.900509, 34.666452 ] } },
{ "type": "Feature", "properties": { "P29_001": "33100", "P29_002": "B133210000216", "P29_003": 16001, "P29_004": "財田小学校", "P29_005": "岡山市中区長岡58-2", "P29_006": 3, "P29_007": 1 }, "geometry": { "type": "Point", "coordinates": [ 133.985916, 34.683896 ] } },
{ "type": "Feature", "properties": { "P29_001": "33100", "P29_002": "B133210000225", "P29_003": 16001, "P29_004": "高島小学校", "P29_005": "岡山市中区国府市場131", "P29_006": 3, "P29_007": 1 }, "geometry": { "type": "Point", "coordinates": [ 133.962391, 34.691145 ] } },
{ "type": "Feature", "properties": { "P29_001": "33100", "P29_002": "B133210000234", "P29_003": 16001, "P29_004": "幡多小学校", "P29_005": "岡山市中区高屋254", "P29_006": 3, "P29_007": 1 }, "geometry": { "type": "Point", "coordinates": [ 133.965835, 34.674564 ] } },
{ "type": "Feature", "properties": { "P29_001": "33100", "P29_002": "B133210000243", "P29_003": 16001, "P29_004": "小串小学校", "P29_005": "岡山市南区小串3379", "P29_006": 3, "P29_007": 1 }, "geometry": { "type": "Point", "coordinates": [ 134.028554, 34.595741 ] } },
{ "type": "Feature", "properties": { "P29_001": "33100", "P29_002": "B133210000252", "P29_003": 16001, "P29_004": "浦安小学校", "P29_005": "岡山市南区浦安本町95", "P29_006": 3, "P29_007": 1 }, "geometry": { "type": "Point", "coordinates": [ 133.919091, 34.603987 ] } },
{ "type": "Feature", "properties": { "P29_001": "33100", "P29_002": "B133210000261", "P29_003": 16001, "P29_004": "津島小学校", "P29_005": "岡山市北区津島本町19-1", "P29_006": 3, "P29_007": 1 }, "geometry": { "type": "Point", "coordinates": [ 133.908646, 34.690449 ] } },
{ "type": "Feature", "properties": { "P29_001": "33100", "P29_002": "B133210000270", "P29_003": 16001, "P29_004": "大元小学校", "P29_005": "岡山市北区大元上町9-43", "P29_006": 3, "P29_007": 1 }, "geometry": { "type": "Point", "coordinates": [ 133.899454, 34.649315 ] } },
{ "type": "Feature", "properties": { "P29_001": "33100", "P29_002": "B133210000289", "P29_003": 16001, "P29_004": "南輝小学校", "P29_005": "岡山市南区南輝3-6-9", "P29_006": 3, "P29_007": 1 }, "geometry": { "type": "Point", "coordinates": [ 133.935034, 34.606349 ] } },
{ "type": "Feature", "properties": { "P29_001": "33100", "P29_002": "B133210000298", "P29_003": 16001, "P29_004": "平福小学校", "P29_005": "岡山市南区平福1-7-1", "P29_006": 3, "P29_007": 1 }, "geometry": { "type": "Point", "coordinates": [ 133.950421, 34.619042 ] } },
{ "type": "Feature", "properties": { "P29_001": "33100", "P29_002": "B133210000305", "P29_003": 16001, "P29_004": "旭竜小学校", "P29_005": "岡山市中区八幡8-1", "P29_006": 3, "P29_007": 1 }, "geometry": { "type": "Point", "coordinates": [ 133.947754, 34.687728 ] } },
{ "type": "Feature", "properties": { "P29_001": "33100", "P29_002": "B133210000314", "P29_003": 16001, "P29_004": "芳泉小学校", "P29_005": "岡山市南区芳泉3-2-3", "P29_006": 3, "P29_007": 1 }, "geometry": { "type": "Point", "coordinates": [ 133.917036, 34.621791 ] } },
{ "type": "Feature", "properties": { "P29_001": "33100", "P29_002": "B133210000323", "P29_003": 16001, "P29_004": "旭操小学校", "P29_005": "岡山市中区倉富160", "P29_006": 3, "P29_007": 1 }, "geometry": { "type": "Point", "coordinates": [ 133.971668, 34.645373 ] } },
{ "type": "Feature", "properties": { "P29_001": "33100", "P29_002": "B133210000859", "P29_003": 16001, "P29_004": "操明小学校", "P29_005": "岡山市中区藤崎721-3", "P29_006": 3, "P29_007": 1 }, "geometry": { "type": "Point", "coordinates": [ 133.974864, 34.617015 ] } },
{ "type": "Feature", "properties": { "P29_001": "33100", "P29_002": "B133210001359", "P29_003": 16001, "P29_004": "古都小学校", "P29_005": "岡山市東区古都宿453-1", "P29_006": 3, "P29_007": 1 }, "geometry": { "type": "Point", "coordinates": [ 134.000665, 34.69384 ] } },
{ "type": "Feature", "properties": { "P29_001": "33100", "P29_002": "B133210001368", "P29_003": 16001, "P29_004": "可知小学校", "P29_005": "岡山市東区可知1-83-2", "P29_006": 3, "P29_007": 1 }, "geometry": { "type": "Point", "coordinates": [ 134.001693, 34.659316 ] } },
{ "type": "Feature", "properties": { "P29_001": "33100", "P29_002": "B133210001377", "P29_003": 16001, "P29_004": "政田小学校", "P29_005": "岡山市東区政津850", "P29_006": 3, "P29_007": 1 }, "geometry": { "type": "Point", "coordinates": [ 134.002778, 34.634375 ] } },
{ "type": "Feature", "properties": { "P29_001": "33100", "P29_002": "B133210001386", "P29_003": 16001, "P29_004": "開成小学校", "P29_005": "岡山市東区金田1524", "P29_006": 3, "P29_007": 1 }, "geometry": { "type": "Point", "coordinates": [ 134.023887, 34.626765 ] } },
{ "type": "Feature", "properties": { "P29_001": "33100", "P29_002": "B133210001395", "P29_003": 16001, "P29_004": "西大寺小学校", "P29_005": "岡山市東区西大寺上1-19-21", "P29_006": 3, "P29_007": 1 }, "geometry": { "type": "Point", "coordinates": [ 134.031746, 34.658095 ] } },
{ "type": "Feature", "properties": { "P29_001": "33100", "P29_002": "B133210001402", "P29_003": 16001, "P29_004": "西大寺南小学校", "P29_005": "岡山市東区金岡西町435-1", "P29_006": 3, "P29_007": 1 }, "geometry": { "type": "Point", "coordinates": [ 134.02558, 34.642791 ] } },
{ "type": "Feature", "properties": { "P29_001": "33100", "P29_002": "B133210001411", "P29_003": 16001, "P29_004": "雄神小学校", "P29_005": "岡山市東区富崎218", "P29_006": 3, "P29_007": 1 }, "geometry": { "type": "Point", "coordinates": [ 134.041272, 34.671816 ] } },
{ "type": "Feature", "properties": { "P29_001": "33100", "P29_002": "B133210001420", "P29_003": 16001, "P29_004": "豊小学校", "P29_005": "岡山市東区西大寺川口130-2", "P29_006": 3, "P29_007": 1 }, "geometry": { "type": "Point", "coordinates": [ 134.046716, 34.649957 ] } },
{ "type": "Feature", "properties": { "P29_001": "33100", "P29_002": "B133210001439", "P29_003": 16001, "P29_004": "太伯小学校", "P29_005": "岡山市東区神崎町860", "P29_006": 3, "P29_007": 1 }, "geometry": { "type": "Point", "coordinates": [ 134.057771, 34.62932 ] } },
{ "type": "Feature", "properties": { "P29_001": "33100", "P29_002": "B133210001448", "P29_003": 16001, "P29_004": "幸島小学校", "P29_005": "岡山市東区水門町571", "P29_006": 3, "P29_007": 1 }, "geometry": { "type": "Point", "coordinates": [ 134.061882, 34.610461 ] } },
{ "type": "Feature", "properties": { "P29_001": "33100", "P29_002": "B133210001457", "P29_003": 16001, "P29_004": "朝日小学校", "P29_005": "岡山市東区西片岡83", "P29_006": 3, "P29_007": 1 }, "geometry": { "type": "Point", "coordinates": [ 134.084824, 34.603461 ] } },
{ "type": "Feature", "properties": { "P29_001": "33100", "P29_002": "B133210001466", "P29_003": 16001, "P29_004": "大宮小学校", "P29_005": "岡山市東区上阿知967", "P29_006": 3, "P29_007": 1 }, "geometry": { "type": "Point", "coordinates": [ 134.099323, 34.625571 ] } },
{ "type": "Feature", "properties": { "P29_001": "33100", "P29_002": "B133210001885", "P29_003": 16001, "P29_004": "五城小学校", "P29_005": "岡山市北区御津新庄3055", "P29_006": 3, "P29_007": 1 }, "geometry": { "type": "Point", "coordinates": [ 133.966277, 34.816758 ] } },
{ "type": "Feature", "properties": { "P29_001": "33100", "P29_002": "B133210001894", "P29_003": 16001, "P29_004": "御津南小学校", "P29_005": "岡山市北区御津野々口1616", "P29_006": 3, "P29_007": 1 }, "geometry": { "type": "Point", "coordinates": [ 133.929419, 34.773386 ] } },
{ "type": "Feature", "properties": { "P29_001": "33100", "P29_002": "B133210001901", "P29_003": 16001, "P29_004": "御津小学校", "P29_005": "岡山市北区御津宇垣1212", "P29_006": 3, "P29_007": 1 }, "geometry": { "type": "Point", "coordinates": [ 133.928243, 34.789893 ] } },
{ "type": "Feature", "properties": { "P29_001": "33100", "P29_002": "B133210001910", "P29_003": 16001, "P29_004": "中山小学校", "P29_005": "岡山市北区一宮702", "P29_006": 3, "P29_007": 1 }, "geometry": { "type": "Point", "coordinates": [ 133.867818, 34.673339 ] } },
{ "type": "Feature", "properties": { "P29_001": "33100", "P29_002": "B133210001929", "P29_003": 16001, "P29_004": "馬屋下小学校", "P29_005": "岡山市北区松尾105-1", "P29_006": 3, "P29_007": 1 }, "geometry": { "type": "Point", "coordinates": [ 133.862817, 34.69653 ] } },
{ "type": "Feature", "properties": { "P29_001": "33100", "P29_002": "B133210001938", "P29_003": 16001, "P29_004": "平津小学校", "P29_005": "岡山市北区楢津738-1", "P29_006": 3, "P29_007": 1 }, "geometry": { "type": "Point", "coordinates": [ 133.878872, 34.680061 ] } },
{ "type": "Feature", "properties": { "P29_001": "33100", "P29_002": "B133210001947", "P29_003": 16001, "P29_004": "建部小学校", "P29_005": "岡山市北区建部町富沢366", "P29_006": 3, "P29_007": 1 }, "geometry": { "type": "Point", "coordinates": [ 133.901363, 34.855766 ] } },
{ "type": "Feature", "properties": { "P29_001": "33100", "P29_002": "B133210001956", "P29_003": 16001, "P29_004": "竹枝小学校", "P29_005": "岡山市北区建部町吉田1504", "P29_006": 3, "P29_007": 1 }, "geometry": { "type": "Point", "coordinates": [ 133.923473, 34.842962 ] } },
{ "type": "Feature", "properties": { "P29_001": "33100", "P29_002": "B133210001965", "P29_003": 16001, "P29_004": "福渡小学校", "P29_005": "岡山市北区建部町川口1302", "P29_006": 3, "P29_007": 1 }, "geometry": { "type": "Point", "coordinates": [ 133.901583, 34.88779 ] } },
{ "type": "Feature", "properties": { "P29_001": "33100", "P29_002": "B133210001974", "P29_003": 16001, "P29_004": "野谷小学校", "P29_005": "岡山市北区栢谷259-1", "P29_006": 3, "P29_007": 1 }, "geometry": { "type": "Point", "coordinates": [ 133.901424, 34.728001 ] } },
{ "type": "Feature", "properties": { "P29_001": "33100", "P29_002": "B133210001983", "P29_003": 16001, "P29_004": "横井小学校", "P29_005": "岡山市北区横井上178", "P29_006": 3, "P29_007": 1 }, "geometry": { "type": "Point", "coordinates": [ 133.903868, 34.706531 ] } },
{ "type": "Feature", "properties": { "P29_001": "33100", "P29_002": "B133210001992", "P29_003": 16001, "P29_004": "馬屋上小学校", "P29_005": "岡山市北区富吉2944-2", "P29_006": 3, "P29_007": 1 }, "geometry": { "type": "Point", "coordinates": [ 133.856677, 34.744555 ] } },
{ "type": "Feature", "properties": { "P29_001": "33100", "P29_002": "B133210002009", "P29_003": 16001, "P29_004": "芥子山小学校", "P29_005": "岡山市東区西大寺松崎97", "P29_006": 3, "P29_007": 1 }, "geometry": { "type": "Point", "coordinates": [ 134.011164, 34.662955 ] } },
{ "type": "Feature", "properties": { "P29_001": "33100", "P29_002": "B133210002054", "P29_003": 16001, "P29_004": "千種小学校", "P29_005": "岡山市東区瀬戸町鍛冶屋391", "P29_006": 3, "P29_007": 1 }, "geometry": { "type": "Point", "coordinates": [ 134.072185, 34.760503 ] } },
{ "type": "Feature", "properties": { "P29_001": "33100", "P29_002": "B133210002063", "P29_003": 16001, "P29_004": "江西小学校", "P29_005": "岡山市東区瀬戸町江尻1399-2", "P29_006": 3, "P29_007": 1 }, "geometry": { "type": "Point", "coordinates": [ 134.044356, 34.725478 ] } },
{ "type": "Feature", "properties": { "P29_001": "33100", "P29_002": "B133210002410", "P29_003": 16001, "P29_004": "平島小学校", "P29_005": "岡山市東区東平島1293", "P29_006": 3, "P29_007": 1 }, "geometry": { "type": "Point", "coordinates": [ 134.049327, 34.71384 ] } },
{ "type": "Feature", "properties": { "P29_001": "33100", "P29_002": "B133210002429", "P29_003": 16001, "P29_004": "御休小学校", "P29_005": "岡山市東区西祖179", "P29_006": 3, "P29_007": 1 }, "geometry": { "type": "Point", "coordinates": [ 134.073008, 34.708437 ] } },
{ "type": "Feature", "properties": { "P29_001": "33100", "P29_002": "B133210002438", "P29_003": 16001, "P29_004": "角山小学校", "P29_005": "岡山市東区才崎389", "P29_006": 3, "P29_007": 1 }, "geometry": { "type": "Point", "coordinates": [ 134.064047, 34.691425 ] } },
{ "type": "Feature", "properties": { "P29_001": "33100", "P29_002": "B133210002447", "P29_003": 16001, "P29_004": "浮田小学校", "P29_005": "岡山市東区沼1725", "P29_006": 3, "P29_007": 1 }, "geometry": { "type": "Point", "coordinates": [ 134.035106, 34.705313 ] } },
{ "type": "Feature", "properties": { "P29_001": "33100", "P29_002": "B133210002456", "P29_003": 16001, "P29_004": "灘崎小学校", "P29_005": "岡山市南区片岡1091", "P29_006": 3, "P29_007": 1 }, "geometry": { "type": "Point", "coordinates": [ 133.863168, 34.541524 ] } },
{ "type": "Feature", "properties": { "P29_001": "33100", "P29_002": "B133210002465", "P29_003": 16001, "P29_004": "灘崎小学校迫川分校", "P29_005": "岡山市南区迫川1094", "P29_006": 3, "P29_007": 1 }, "geometry": { "type": "Point", "coordinates": [ 133.878157, 34.534104 ] } },
{ "type": "Feature", "properties": { "P29_001": "33100", "P29_002": "B133210002474", "P29_003": 16001, "P29_004": "七区小学校", "P29_005": "岡山市南区北七区61-3", "P29_006": 3, "P29_007": 1 }, "geometry": { "type": "Point", "coordinates": [ 133.909404, 34.556064 ] } },
{ "type": "Feature", "properties": { "P29_001": "33100", "P29_002": "B133210002483", "P29_003": 16001, "P29_004": "彦崎小学校", "P29_005": "岡山市南区彦崎2642", "P29_006": 3, "P29_007": 1 }, "geometry": { "type": "Point", "coordinates": [ 133.836852, 34.548727 ] } },
{ "type": "Feature", "properties": { "P29_001": "33100", "P29_002": "B133210002517", "P29_003": 16001, "P29_004": "興除小学校", "P29_005": "岡山市南区中畦593", "P29_006": 3, "P29_007": 1 }, "geometry": { "type": "Point", "coordinates": [ 133.851792, 34.588875 ] } },
{ "type": "Feature", "properties": { "P29_001": "33100", "P29_002": "B133210002526", "P29_003": 16001, "P29_004": "曽根小学校", "P29_005": "岡山市南区曽根139-2", "P29_006": 3, "P29_007": 1 }, "geometry": { "type": "Point", "coordinates": [ 133.840266, 34.563322 ] } },
{ "type": "Feature", "properties": { "P29_001": "33100", "P29_002": "B133210002535", "P29_003": 16001, "P29_004": "東疇小学校", "P29_005": "岡山市南区東畦656-2", "P29_006": 3, "P29_007": 1 }, "geometry": { "type": "Point", "coordinates": [ 133.878984, 34.60618 ] } },
{ "type": "Feature", "properties": { "P29_001": "33100", "P29_002": "B133210002544", "P29_003": 16001, "P29_004": "御南小学校", "P29_005": "岡山市北区今保243-3", "P29_006": 3, "P29_007": 1 }, "geometry": { "type": "Point", "coordinates": [ 133.872486, 34.640842 ] } },
{ "type": "Feature", "properties": { "P29_001": "33100", "P29_002": "B133210002553", "P29_003": 16001, "P29_004": "第一藤田小学校", "P29_005": "岡山市南区藤田349", "P29_006": 3, "P29_007": 1 }, "geometry": { "type": "Point", "coordinates": [ 133.87518, 34.577988 ] } },
{ "type": "Feature", "properties": { "P29_001": "33100", "P29_002": "B133210002562", "P29_003": 16001, "P29_004": "第二藤田小学校", "P29_005": "岡山市南区藤田595", "P29_006": 3, "P29_007": 1 }, "geometry": { "type": "Point", "coordinates": [ 133.893344, 34.605737 ] } },
{ "type": "Feature", "properties": { "P29_001": "33100", "P29_002": "B133210002571", "P29_003": 16001, "P29_004": "第三藤田小学校", "P29_005": "岡山市南区藤田1757", "P29_006": 3, "P29_007": 1 }, "geometry": { "type": "Point", "coordinates": [ 133.89726, 34.584073 ] } },
{ "type": "Feature", "properties": { "P29_001": "33100", "P29_002": "B133210002580", "P29_003": 16001, "P29_004": "吉備小学校", "P29_005": "岡山市北区庭瀬256", "P29_006": 3, "P29_007": 1 }, "geometry": { "type": "Point", "coordinates": [ 133.849905, 34.647118 ] } },
{ "type": "Feature", "properties": { "P29_001": "33100", "P29_002": "B133210002599", "P29_003": 16001, "P29_004": "陵南小学校", "P29_005": "岡山市北区東花尻241-1", "P29_006": 3, "P29_007": 1 }, "geometry": { "type": "Point", "coordinates": [ 133.863598, 34.65259 ] } },
{ "type": "Feature", "properties": { "P29_001": "33100", "P29_002": "B133210002624", "P29_003": 16001, "P29_004": "妹尾小学校", "P29_005": "岡山市南区妹尾1353", "P29_006": 3, "P29_007": 1 }, "geometry": { "type": "Point", "coordinates": [ 133.867402, 34.612234 ] } },
{ "type": "Feature", "properties": { "P29_001": "33100", "P29_002": "B133210002633", "P29_003": 16001, "P29_004": "箕島小学校", "P29_005": "岡山市南区箕島2384", "P29_006": 3, "P29_007": 1 }, "geometry": { "type": "Point", "coordinates": [ 133.848264, 34.610873 ] } },
{ "type": "Feature", "properties": { "P29_001": "33100", "P29_002": "B133210002651", "P29_003": 16001, "P29_004": "福田小学校", "P29_005": "岡山市南区古新田1095", "P29_006": 3, "P29_007": 1 }, "geometry": { "type": "Point", "coordinates": [ 133.87093, 34.624955 ] } },
{ "type": "Feature", "properties": { "P29_001": "33100", "P29_002": "B133210002893", "P29_003": 16001, "P29_004": "鯉山小学校", "P29_005": "岡山市北区吉備津1444", "P29_006": 3, "P29_007": 1 }, "geometry": { "type": "Point", "coordinates": [ 133.84632, 34.671588 ] } },
{ "type": "Feature", "properties": { "P29_001": "33100", "P29_002": "B133210002900", "P29_003": 16001, "P29_004": "庄内小学校", "P29_005": "岡山市北区三手336-2", "P29_006": 3, "P29_007": 1 }, "geometry": { "type": "Point", "coordinates": [ 133.816292, 34.68903 ] } },
{ "type": "Feature", "properties": { "P29_001": "33100", "P29_002": "B133210002919", "P29_003": 16001, "P29_004": "加茂小学校", "P29_005": "岡山市北区津寺517", "P29_006": 3, "P29_007": 1 }, "geometry": { "type": "Point", "coordinates": [ 133.822349, 34.675088 ] } },
{ "type": "Feature", "properties": { "P29_001": "33100", "P29_002": "B133210002928", "P29_003": 16001, "P29_004": "足守小学校", "P29_005": "岡山市北区足守789", "P29_006": 3, "P29_007": 1 }, "geometry": { "type": "Point", "coordinates": [ 133.801624, 34.729972 ] } },
{ "type": "Feature", "properties": { "P29_001": "33100", "P29_002": "B133210002937", "P29_003": 16001, "P29_004": "蛍明小学校", "P29_005": "岡山市北区大井360", "P29_006": 3, "P29_007": 1 }, "geometry": { "type": "Point", "coordinates": [ 133.823872, 34.766331 ] } },
{ "type": "Feature", "properties": { "P29_001": "33100", "P29_002": "B133210003785", "P29_003": 16001, "P29_004": "竜之口小学校", "P29_005": "岡山市中区四御神266", "P29_006": 3, "P29_007": 1 }, "geometry": { "type": "Point", "coordinates": [ 133.977473, 34.694811 ] } },
{ "type": "Feature", "properties": { "P29_001": "33100", "P29_002": "B133210003794", "P29_003": 16001, "P29_004": "芳明小学校", "P29_005": "岡山市南区万倍1", "P29_006": 3, "P29_007": 1 }, "geometry": { "type": "Point", "coordinates": [ 133.898816, 34.628595 ] } },
{ "type": "Feature", "properties": { "P29_001": "33100", "P29_002": "B133210003801", "P29_003": 16001, "P29_004": "桃丘小学校", "P29_005": "岡山市北区芳賀5111-22", "P29_006": 3, "P29_007": 1 }, "geometry": { "type": "Point", "coordinates": [ 133.876315, 34.707474 ] } },
{ "type": "Feature", "properties": { "P29_001": "33100", "P29_002": "B133310000018", "P29_003": 16001, "P29_004": "ノートルダム清心女子大学附属小学校", "P29_005": "岡山市北区伊福町2-16-9", "P29_006": 4, "P29_007": 0 }, "geometry": { "type": "Point", "coordinates": [ 133.91534, 34.67259 ] } },
{ "type": "Feature", "properties": { "P29_001": "33100", "P29_002": "B133310000036", "P29_003": 16001, "P29_004": "朝日塾小学校", "P29_005": "岡山市北区吉宗856", "P29_006": 4, "P29_007": 0 }, "geometry": { "type": "Point", "coordinates": [ 133.910784, 34.731834 ] } },
{ "type": "Feature", "properties": { "P29_001": "33100", "P29_002": "B133310000045", "P29_003": 16001, "P29_004": "就実小学校", "P29_005": "岡山市中区西川原1-6-1", "P29_006": 4, "P29_007": 0 }, "geometry": { "type": "Point", "coordinates": [ 133.937459, 34.677358 ] } },
{ "type": "Feature", "properties": { "P29_001": "33100", "P29_002": "B133210003810", "P29_003": 16001, "P29_004": "芳泉小学校ひばり分校", "P29_005": "岡山市南区泉田78-1", "P29_006": 3, "P29_007": 1 }, "geometry": { "type": "Point", "coordinates": [ 133.916092, 34.623596 ] } },
{ "type": "Feature", "properties": { "P29_001": "33100", "P29_002": "B133210003829", "P29_003": 16001, "P29_004": "城東台小学校", "P29_005": "岡山市東区城東台西3-6-3", "P29_006": 3, "P29_007": 1 }, "geometry": { "type": "Point", "coordinates": [ 134.024524, 34.691869 ] } },
{ "type": "Feature", "properties": { "P29_001": "33100", "P29_002": "B133210003838", "P29_003": 16001, "P29_004": "岡山中央小学校", "P29_005": "岡山市北区弓之町9-27", "P29_006": 3, "P29_007": 1 }, "geometry": { "type": "Point", "coordinates": [ 133.928394, 34.670808 ] } },
{ "type": "Feature", "properties": { "P29_001": "33100", "P29_002": "C133110000010", "P29_003": 16002, "P29_004": "岡山大学教育学部附属中学校", "P29_005": "岡山市中区東山2-13-80", "P29_006": 1, "P29_007": 1 }, "geometry": { "type": "Point", "coordinates": [ 133.943116, 34.652844 ] } },
{ "type": "Feature", "properties": { "P29_001": "33100", "P29_002": "C133210000018", "P29_003": 16002, "P29_004": "岡北中学校", "P29_005": "岡山市北区津島東1-1-1", "P29_006": 3, "P29_007": 1 }, "geometry": { "type": "Point", "coordinates": [ 133.926839, 34.686867 ] } },
{ "type": "Feature", "properties": { "P29_001": "33100", "P29_002": "C133210000027", "P29_003": 16002, "P29_004": "石井中学校", "P29_005": "岡山市北区下伊福上町10-9", "P29_006": 3, "P29_007": 1 }, "geometry": { "type": "Point", "coordinates": [ 133.901814, 34.667285 ] } },
{ "type": "Feature", "properties": { "P29_001": "33100", "P29_002": "C133210000036", "P29_003": 16002, "P29_004": "桑田中学校", "P29_005": "岡山市北区東島田町2-3-35", "P29_006": 3, "P29_007": 1 }, "geometry": { "type": "Point", "coordinates": [ 133.91398, 34.657481 ] } },
{ "type": "Feature", "properties": { "P29_001": "33100", "P29_002": "C133210000045", "P29_003": 16002, "P29_004": "岡輝中学校", "P29_005": "岡山市北区岡町12-17", "P29_006": 3, "P29_007": 1 }, "geometry": { "type": "Point", "coordinates": [ 133.922869, 34.648205 ] } },
{ "type": "Feature", "properties": { "P29_001": "33100", "P29_002": "C133210000054", "P29_003": 16002, "P29_004": "福浜中学校", "P29_005": "岡山市南区三浜町2-3-26", "P29_006": 3, "P29_007": 1 }, "geometry": { "type": "Point", "coordinates": [ 133.944255, 34.616459 ] } },
{ "type": "Feature", "properties": { "P29_001": "33100", "P29_002": "C133210000063", "P29_003": 16002, "P29_004": "東山中学校", "P29_005": "岡山市中区御幸町13-3", "P29_006": 3, "P29_007": 1 }, "geometry": { "type": "Point", "coordinates": [ 133.934061, 34.652399 ] } },
{ "type": "Feature", "properties": { "P29_001": "33100", "P29_002": "C133210000072", "P29_003": 16002, "P29_004": "操山中学校", "P29_005": "岡山市中区国富3-11-1", "P29_006": 3, "P29_007": 1 }, "geometry": { "type": "Point", "coordinates": [ 133.950309, 34.666703 ] } },
{ "type": "Feature", "properties": { "P29_001": "33100", "P29_002": "C133210000081", "P29_003": 16002, "P29_004": "操南中学校", "P29_005": "岡山市中区藤崎130-2", "P29_006": 3, "P29_007": 1 }, "geometry": { "type": "Point", "coordinates": [ 133.968336, 34.631458 ] } },
{ "type": "Feature", "properties": { "P29_001": "33100", "P29_002": "C133210000090", "P29_003": 16002, "P29_004": "御南中学校", "P29_005": "岡山市北区田中581", "P29_006": 3, "P29_007": 1 }, "geometry": { "type": "Point", "coordinates": [ 133.880763, 34.638093 ] } },
{ "type": "Feature", "properties": { "P29_001": "33100", "P29_002": "C133210000107", "P29_003": 16002, "P29_004": "光南台中学校", "P29_005": "岡山市南区飽浦390", "P29_006": 3, "P29_007": 1 }, "geometry": { "type": "Point", "coordinates": [ 133.973504, 34.591185 ] } },
{ "type": "Feature", "properties": { "P29_001": "33100", "P29_002": "C133210000116", "P29_003": 16002, "P29_004": "竜操中学校", "P29_005": "岡山市中区赤田188-1", "P29_006": 3, "P29_007": 1 }, "geometry": { "type": "Point", "coordinates": [ 133.966724, 34.68148 ] } },
{ "type": "Feature", "properties": { "P29_001": "33100", "P29_002": "C133210000125", "P29_003": 16002, "P29_004": "京山中学校", "P29_005": "岡山市北区津島京町1-7-1", "P29_006": 3, "P29_007": 1 }, "geometry": { "type": "Point", "coordinates": [ 133.901591, 34.681006 ] } },
{ "type": "Feature", "properties": { "P29_001": "33100", "P29_002": "C133210000134", "P29_003": 16002, "P29_004": "福南中学校", "P29_005": "岡山市南区築港ひかり町10-35", "P29_006": 3, "P29_007": 1 }, "geometry": { "type": "Point", "coordinates": [ 133.938729, 34.601349 ] } },
{ "type": "Feature", "properties": { "P29_001": "33100", "P29_002": "C133210000143", "P29_003": 16002, "P29_004": "芳泉中学校", "P29_005": "岡山市南区芳泉3-2-1", "P29_006": 3, "P29_007": 1 }, "geometry": { "type": "Point", "coordinates": [ 133.916953, 34.622513 ] } },
{ "type": "Feature", "properties": { "P29_001": "33100", "P29_002": "C133210000152", "P29_003": 16002, "P29_004": "高島中学校", "P29_005": "岡山市中区賞田190-1", "P29_006": 3, "P29_007": 1 }, "geometry": { "type": "Point", "coordinates": [ 133.959836, 34.693089 ] } },
{ "type": "Feature", "properties": { "P29_001": "33100", "P29_002": "C133210000161", "P29_003": 16002, "P29_004": "芳田中学校", "P29_005": "岡山市南区当新田468-1", "P29_006": 3, "P29_007": 1 }, "geometry": { "type": "Point", "coordinates": [ 133.900732, 34.622624 ] } },
{ "type": "Feature", "properties": { "P29_001": "33100", "P29_002": "C133210000170", "P29_003": 16002, "P29_004": "富山中学校", "P29_005": "岡山市中区海吉1462-5", "P29_006": 3, "P29_007": 1 }, "geometry": { "type": "Point", "coordinates": [ 133.989444, 34.66376 ] } },
{ "type": "Feature", "properties": { "P29_001": "33100", "P29_002": "C133210000189", "P29_003": 16002, "P29_004": "岡山後楽館中学校", "P29_005": "岡山市北区南方1-3-15", "P29_006": 3, "P29_007": 1 }, "geometry": { "type": "Point", "coordinates": [ 133.92367, 34.672514 ] } },
{ "type": "Feature", "properties": { "P29_001": "33100", "P29_002": "C133210000198", "P29_003": 16002, "P29_004": "岡山中央中学校", "P29_005": "岡山市北区蕃山町6-10", "P29_006": 3, "P29_007": 1 }, "geometry": { "type": "Point", "coordinates": [ 133.927756, 34.668341 ] } },
{ "type": "Feature", "properties": { "P29_001": "33100", "P29_002": "C133210000651", "P29_003": 16002, "P29_004": "西大寺中学校", "P29_005": "岡山市東区西大寺上1-20-60", "P29_006": 3, "P29_007": 1 }, "geometry": { "type": "Point", "coordinates": [ 134.033079, 34.657845 ] } },
{ "type": "Feature", "properties": { "P29_001": "33100", "P29_002": "C133210000660", "P29_003": 16002, "P29_004": "上南中学校", "P29_005": "岡山市東区金田722", "P29_006": 3, "P29_007": 1 }, "geometry": { "type": "Point", "coordinates": [ 134.013665, 34.636458 ] } },
{ "type": "Feature", "properties": { "P29_001": "33100", "P29_002": "C133210000679", "P29_003": 16002, "P29_004": "山南中学校", "P29_005": "岡山市東区北幸田509-1", "P29_006": 3, "P29_007": 1 }, "geometry": { "type": "Point", "coordinates": [ 134.060549, 34.622015 ] } },
{ "type": "Feature", "properties": { "P29_001": "33100", "P29_002": "C133210000688", "P29_003": 16002, "P29_004": "旭東中学校", "P29_005": "岡山市東区大多羅町276", "P29_006": 3, "P29_007": 1 }, "geometry": { "type": "Point", "coordinates": [ 134.003193, 34.66601 ] } },
{ "type": "Feature", "properties": { "P29_001": "33100", "P29_002": "C133210000697", "P29_003": 16002, "P29_004": "岡山操山中学校", "P29_005": "岡山市中区浜412", "P29_006": 2, "P29_007": 1 }, "geometry": { "type": "Point", "coordinates": [ 133.940404, 34.673239 ] } },
{ "type": "Feature", "properties": { "P29_001": "33100", "P29_002": "C133210000704", "P29_003": 16002, "P29_004": "緑ヶ丘中学校", "P29_005": "岡山市中区平井2-2572", "P29_006": 3, "P29_007": 1 }, "geometry": { "type": "Point", "coordinates": [ 133.948879, 34.644682 ] } },
{ "type": "Feature", "properties": { "P29_001": "33100", "P29_002": "C133210000820", "P29_003": 16002, "P29_004": "御津中学校", "P29_005": "岡山市北区御津宇垣1227", "P29_006": 3, "P29_007": 1 }, "geometry": { "type": "Point", "coordinates": [ 133.929952, 34.790805 ] } },
{ "type": "Feature", "properties": { "P29_001": "33100", "P29_002": "C133210000839", "P29_003": 16002, "P29_004": "中山中学校", "P29_005": "岡山市北区辛川市場159", "P29_006": 3, "P29_007": 1 }, "geometry": { "type": "Point", "coordinates": [ 133.866068, 34.681032 ] } },
{ "type": "Feature", "properties": { "P29_001": "33100", "P29_002": "C133210000848", "P29_003": 16002, "P29_004": "建部中学校", "P29_005": "岡山市北区建部町建部上734", "P29_006": 3, "P29_007": 1 }, "geometry": { "type": "Point", "coordinates": [ 133.905696, 34.856793 ] } },
{ "type": "Feature", "properties": { "P29_001": "33100", "P29_002": "C133210000857", "P29_003": 16002, "P29_004": "香和中学校", "P29_005": "岡山市北区吉宗590", "P29_006": 3, "P29_007": 1 }, "geometry": { "type": "Point", "coordinates": [ 133.90484, 34.731306 ] } },
{ "type": "Feature", "properties": { "P29_001": "33100", "P29_002": "C133210000875", "P29_003": 16002, "P29_004": "瀬戸中学校", "P29_005": "岡山市東区瀬戸町瀬戸444", "P29_006": 3, "P29_007": 1 }, "geometry": { "type": "Point", "coordinates": [ 134.040134, 34.738393 ] } },
{ "type": "Feature", "properties": { "P29_001": "33100", "P29_002": "C133210001035", "P29_003": 16002, "P29_004": "上道中学校", "P29_005": "岡山市東区南古都714", "P29_006": 3, "P29_007": 1 }, "geometry": { "type": "Point", "coordinates": [ 134.051854, 34.698397 ] } },
{ "type": "Feature", "properties": { "P29_001": "33100", "P29_002": "C133210001044", "P29_003": 16002, "P29_004": "灘崎中学校", "P29_005": "岡山市南区片岡770", "P29_006": 3, "P29_007": 1 }, "geometry": { "type": "Point", "coordinates": [ 133.867123, 34.539918 ] } },
{ "type": "Feature", "properties": { "P29_001": "33100", "P29_002": "C133210001062", "P29_003": 16002, "P29_004": "興除中学校", "P29_005": "岡山市南区中畦589-4", "P29_006": 3, "P29_007": 1 }, "geometry": { "type": "Point", "coordinates": [ 133.852764, 34.588264 ] } },
{ "type": "Feature", "properties": { "P29_001": "33100", "P29_002": "C133210001071", "P29_003": 16002, "P29_004": "藤田中学校", "P29_005": "岡山市南区藤田400", "P29_006": 3, "P29_007": 1 }, "geometry": { "type": "Point", "coordinates": [ 133.876179, 34.58671 ] } },
{ "type": "Feature", "properties": { "P29_001": "33100", "P29_002": "C133210001080", "P29_003": 16002, "P29_004": "吉備中学校", "P29_005": "岡山市北区庭瀬103", "P29_006": 3, "P29_007": 1 }, "geometry": { "type": "Point", "coordinates": [ 133.851071, 34.65009 ] } },
{ "type": "Feature", "properties": { "P29_001": "33100", "P29_002": "C133210001106", "P29_003": 16002, "P29_004": "妹尾中学校", "P29_005": "岡山市南区妹尾1212", "P29_006": 3, "P29_007": 1 }, "geometry": { "type": "Point", "coordinates": [ 133.864402, 34.614456 ] } },
{ "type": "Feature", "properties": { "P29_001": "33100", "P29_002": "C133210001124", "P29_003": 16002, "P29_004": "福田中学校", "P29_005": "岡山市南区山田544-3", "P29_006": 3, "P29_007": 1 }, "geometry": { "type": "Point", "coordinates": [ 133.85932, 34.625094 ] } },
{ "type": "Feature", "properties": { "P29_001": "33100", "P29_002": "C133210001213", "P29_003": 16002, "P29_004": "高松中学校", "P29_005": "岡山市北区高松原古才30", "P29_006": 3, "P29_007": 1 }, "geometry": { "type": "Point", "coordinates": [ 133.81857, 34.687503 ] } },
{ "type": "Feature", "properties": { "P29_001": "33100", "P29_002": "C133210001222", "P29_003": 16002, "P29_004": "足守中学校", "P29_005": "岡山市北区大井360", "P29_006": 3, "P29_007": 1 }, "geometry": { "type": "Point", "coordinates": [ 133.798652, 34.742832 ] } },
{ "type": "Feature", "properties": { "P29_001": "33100", "P29_002": "C133310000016", "P29_003": 16002, "P29_004": "山陽学園中学校", "P29_005": "岡山市中区門田屋敷2-2-16", "P29_006": 4, "P29_007": 0 }, "geometry": { "type": "Point", "coordinates": [ 133.940787, 34.655568 ] } },
{ "type": "Feature", "properties": { "P29_001": "33100", "P29_002": "C133310000025", "P29_003": 16002, "P29_004": "就実中学校", "P29_005": "岡山市北区弓之町14-23", "P29_006": 4, "P29_007": 0 }, "geometry": { "type": "Point", "coordinates": [ 133.929224, 34.670679 ] } },
{ "type": "Feature", "properties": { "P29_001": "33100", "P29_002": "C133310000034", "P29_003": 16002, "P29_004": "岡山中学校", "P29_005": "岡山市南区箕島1500", "P29_006": 4, "P29_007": 0 }, "geometry": { "type": "Point", "coordinates": [ 133.857208, 34.614178 ] } },
{ "type": "Feature", "properties": { "P29_001": "33100", "P29_002": "C133310000043", "P29_003": 16002, "P29_004": "岡山理科大学附属中学校", "P29_005": "岡山市北区理大町1-1", "P29_006": 4, "P29_007": 0 }, "geometry": { "type": "Point", "coordinates": [ 133.928101, 34.696152 ] } },
{ "type": "Feature", "properties": { "P29_001": "33100", "P29_002": "C133310000052", "P29_003": 16002, "P29_004": "岡山学芸館清秀中学校", "P29_005": "岡山市東区西大寺上1-19-19", "P29_006": 4, "P29_007": 0 }, "geometry": { "type": "Point", "coordinates": [ 134.032144, 34.660089 ] } },
{ "type": "Feature", "properties": { "P29_001": "33100", "P29_002": "D133210000016", "P29_003": 16004, "P29_004": "岡山朝日高等学校", "P29_005": "岡山市中区古京町2-2-21", "P29_006": 2, "P29_007": 1 }, "geometry": { "type": "Point", "coordinates": [ 133.944532, 34.660732 ] } },
{ "type": "Feature", "properties": { "P29_001": "33100", "P29_002": "D133210000025", "P29_003": 16004, "P29_004": "岡山操山高等学校", "P29_005": "岡山市中区浜412", "P29_006": 2, "P29_007": 1 }, "geometry": { "type": "Point", "coordinates": [ 133.940032, 34.673397 ] } },
{ "type": "Feature", "properties": { "P29_001": "33100", "P29_002": "D133210000034", "P29_003": 16004, "P29_004": "岡山工業高等学校", "P29_005": "岡山市北区伊福町4-3-92", "P29_006": 2, "P29_007": 1 }, "geometry": { "type": "Point", "coordinates": [ 133.910285, 34.672479 ] } },
{ "type": "Feature", "properties": { "P29_001": "33100", "P29_002": "D133210000043", "P29_003": 16004, "P29_004": "東岡山工業高等学校", "P29_005": "岡山市中区土田290-1", "P29_006": 2, "P29_007": 1 }, "geometry": { "type": "Point", "coordinates": [ 133.985777, 34.688118 ] } },
{ "type": "Feature", "properties": { "P29_001": "33100", "P29_002": "D133210000052", "P29_003": 16004, "P29_004": "岡山東商業高等学校", "P29_005": "岡山市中区東山3-1-6", "P29_006": 2, "P29_007": 1 }, "geometry": { "type": "Point", "coordinates": [ 133.94131, 34.651955 ] } },
{ "type": "Feature", "properties": { "P29_001": "33100", "P29_002": "D133210000061", "P29_003": 16004, "P29_004": "岡山南高等学校", "P29_005": "岡山市北区奥田2-4-7", "P29_006": 2, "P29_007": 1 }, "geometry": { "type": "Point", "coordinates": [ 133.923452, 34.643066 ] } },
{ "type": "Feature", "properties": { "P29_001": "33100", "P29_002": "D133210000230", "P29_003": 16004, "P29_004": "西大寺高等学校", "P29_005": "岡山市東区西大寺2-1-17", "P29_006": 2, "P29_007": 1 }, "geometry": { "type": "Point", "coordinates": [ 134.034329, 34.658928 ] } },
{ "type": "Feature", "properties": { "P29_001": "33100", "P29_002": "D133210000285", "P29_003": 16004, "P29_004": "瀬戸高等学校", "P29_005": "岡山市東区瀬戸町光明谷316-1", "P29_006": 2, "P29_007": 1 }, "geometry": { "type": "Point", "coordinates": [ 134.041439, 34.740337 ] } },
{ "type": "Feature", "properties": { "P29_001": "33100", "P29_002": "D133210000294", "P29_003": 16004, "P29_004": "瀬戸南高等学校", "P29_005": "岡山市東区瀬戸町沖88", "P29_006": 2, "P29_007": 1 }, "geometry": { "type": "Point", "coordinates": [ 134.042189, 34.723284 ] } },
{ "type": "Feature", "properties": { "P29_001": "33100", "P29_002": "D133210000329", "P29_003": 16004, "P29_004": "興陽高等学校", "P29_005": "岡山市南区藤田1500", "P29_006": 2, "P29_007": 1 }, "geometry": { "type": "Point", "coordinates": [ 133.890566, 34.584378 ] } },
{ "type": "Feature", "properties": { "P29_001": "33100", "P29_002": "D133210000356", "P29_003": 16004, "P29_004": "高松農業高等学校", "P29_005": "岡山市北区高松原古才336-2", "P29_006": 2, "P29_007": 1 }, "geometry": { "type": "Point", "coordinates": [ 133.821182, 34.684198 ] } },
{ "type": "Feature", "properties": { "P29_001": "33100", "P29_002": "D133210000392", "P29_003": 16004, "P29_004": "岡山芳泉高等学校", "P29_005": "岡山市南区芳泉3-1-1", "P29_006": 2, "P29_007": 1 }, "geometry": { "type": "Point", "coordinates": [ 133.915592, 34.622013 ] } },
{ "type": "Feature", "properties": { "P29_001": "33100", "P29_002": "D133210000418", "P29_003": 16004, "P29_004": "岡山一宮高等学校", "P29_005": "岡山市北区楢津221", "P29_006": 2, "P29_007": 1 }, "geometry": { "type": "Point", "coordinates": [ 133.890814, 34.680672 ] } },
{ "type": "Feature", "properties": { "P29_001": "33100", "P29_002": "D133210000454", "P29_003": 16004, "P29_004": "岡山城東高等学校", "P29_005": "岡山市中区下110", "P29_006": 2, "P29_007": 1 }, "geometry": { "type": "Point", "coordinates": [ 134.000054, 34.680425 ] } },
{ "type": "Feature", "properties": { "P29_001": "33100", "P29_002": "D133210000506", "P29_003": 16004, "P29_004": "岡山御津高等学校", "P29_005": "岡山市北区御津金川940", "P29_006": 2, "P29_007": 1 }, "geometry": { "type": "Point", "coordinates": [ 133.935306, 34.797634 ] } },
{ "type": "Feature", "properties": { "P29_001": "33100", "P29_002": "D133210000524", "P29_003": 16004, "P29_004": "烏城高等学校", "P29_005": "岡山市北区伊島町3-1-1", "P29_006": 2, "P29_007": 1 }, "geometry": { "type": "Point", "coordinates": [ 133.908396, 34.676479 ] } },
{ "type": "Feature", "properties": { "P29_001": "33100", "P29_002": "D133310000014", "P29_003": 16004, "P29_004": "関西高等学校", "P29_005": "岡山市北区西崎本町16-1", "P29_006": 4, "P29_007": 0 }, "geometry": { "type": "Point", "coordinates": [ 133.897231, 34.66884 ] } },
{ "type": "Feature", "properties": { "P29_001": "33100", "P29_002": "D133310000023", "P29_003": 16004, "P29_004": "岡山商科大学附属高等学校", "P29_005": "岡山市北区南方5-2-45", "P29_006": 4, "P29_007": 0 }, "geometry": { "type": "Point", "coordinates": [ 133.922117, 34.676007 ] } },
{ "type": "Feature", "properties": { "P29_001": "33100", "P29_002": "D133310000032", "P29_003": 16004, "P29_004": "山陽学園高等学校", "P29_005": "岡山市中区門田屋敷2-2-16", "P29_006": 4, "P29_007": 0 }, "geometry": { "type": "Point", "coordinates": [ 133.940783, 34.655538 ] } },
{ "type": "Feature", "properties": { "P29_001": "33100", "P29_002": "D133310000041", "P29_003": 16004, "P29_004": "就実高等学校", "P29_005": "岡山市北区弓之町14-23", "P29_006": 4, "P29_007": 0 }, "geometry": { "type": "Point", "coordinates": [ 133.929228, 34.670647 ] } },
{ "type": "Feature", "properties": { "P29_001": "33100", "P29_002": "D133310000050", "P29_003": 16004, "P29_004": "創志学園高等学校", "P29_005": "岡山市北区下伊福西町7-38", "P29_006": 4, "P29_007": 0 }, "geometry": { "type": "Point", "coordinates": [ 133.902564, 34.666396 ] } },
{ "type": "Feature", "properties": { "P29_001": "33100", "P29_002": "D133310000069", "P29_003": 16004, "P29_004": "明誠学院高等学校", "P29_005": "岡山市北区津島西坂3-5-1", "P29_006": 4, "P29_007": 0 }, "geometry": { "type": "Point", "coordinates": [ 133.906146, 34.686672 ] } },
{ "type": "Feature", "properties": { "P29_001": "33100", "P29_002": "D133310000087", "P29_003": 16004, "P29_004": "岡山理科大学附属高等学校", "P29_005": "岡山市北区理大町1-1", "P29_006": 4, "P29_007": 0 }, "geometry": { "type": "Point", "coordinates": [ 133.928089, 34.696143 ] } },
{ "type": "Feature", "properties": { "P29_001": "33100", "P29_002": "D133310000130", "P29_003": 16004, "P29_004": "岡山学芸館高等学校", "P29_005": "岡山市東区西大寺上1-19-19", "P29_006": 4, "P29_007": 0 }, "geometry": { "type": "Point", "coordinates": [ 134.032218, 34.659678 ] } },
{ "type": "Feature", "properties": { "P29_001": "33100", "P29_002": "D133310000229", "P29_003": 16004, "P29_004": "岡山高等学校", "P29_005": "岡山市南区箕島1500", "P29_006": 4, "P29_007": 0 }, "geometry": { "type": "Point", "coordinates": [ 133.858097, 34.614012 ] } },
{ "type": "Feature", "properties": { "P29_001": "33100", "P29_002": "D133310000247", "P29_003": 16004, "P29_004": "鹿島朝日高等学校", "P29_005": "岡山市岡山市北区御津紙工2590", "P29_006": 4, "P29_007": 0 }, "geometry": { "type": "Point", "coordinates": [ 133.859187, 34.821502 ] } },
{ "type": "Feature", "properties": { "P29_001": "33100", "P29_002": "D133310000265", "P29_003": 16004, "P29_004": "ワオ高等学校", "P29_005": "岡山市北区磨屋町7-2", "P29_006": 4, "P29_007": 0 }, "geometry": { "type": "Point", "coordinates": [ 133.924562, 34.663702 ] } },
{ "type": "Feature", "properties": { "P29_001": "33100", "P29_002": "D233310000013", "P29_003": 16003, "P29_004": "朝日塾中等教育学校", "P29_005": "岡山市北区御津紙工2590", "P29_006": 4, "P29_007": 0 }, "geometry": { "type": "Point", "coordinates": [ 133.85887, 34.82206 ] } },
{ "type": "Feature", "properties": { "P29_001": "33100", "P29_002": "D133210000622", "P29_003": 16004, "P29_004": "岡山後楽館高等学校", "P29_005": "岡山市北区南方1-3-15", "P29_006": 3, "P29_007": 1 }, "geometry": { "type": "Point", "coordinates": [ 133.923123, 34.672827 ] } },
{ "type": "Feature", "properties": { "P29_001": "33100", "P29_002": "D233210000015", "P29_003": 16003, "P29_004": "岡山大安寺中等教育学校", "P29_005": "岡山市北区北長瀬本町19-34", "P29_006": 2, "P29_007": 1 }, "geometry": { "type": "Point", "coordinates": [ 133.883051, 34.655908 ] } },
{ "type": "Feature", "properties": { "P29_001": "33100", "P29_002": "E133110000015", "P29_003": 16012, "P29_004": "岡山大学教育学部附属特別支援学校", "P29_005": "岡山市中区平井3-914", "P29_006": 1, "P29_007": 1 }, "geometry": { "type": "Point", "coordinates": [ 133.948004, 34.637818 ] } },
{ "type": "Feature", "properties": { "P29_001": "33100", "P29_002": "E133210000013", "P29_003": 16012, "P29_004": "岡山盲学校", "P29_005": "岡山市中区原尾島4-16-53", "P29_006": 2, "P29_007": 1 }, "geometry": { "type": "Point", "coordinates": [ 133.957169, 34.666315 ] } },
{ "type": "Feature", "properties": { "P29_001": "33100", "P29_002": "E133210000022", "P29_003": 16012, "P29_004": "岡山聾学校", "P29_005": "岡山市中区土田51", "P29_006": 2, "P29_007": 1 }, "geometry": { "type": "Point", "coordinates": [ 133.988444, 34.692034 ] } },
{ "type": "Feature", "properties": { "P29_001": "33100", "P29_002": "E133210000031", "P29_003": 16012, "P29_004": "岡山支援学校", "P29_005": "岡山市北区祇園866", "P29_006": 2, "P29_007": 1 }, "geometry": { "type": "Point", "coordinates": [ 133.956724, 34.707187 ] } },
{ "type": "Feature", "properties": { "P29_001": "33100", "P29_002": "E133210000068", "P29_003": 16012, "P29_004": "岡山西支援学校", "P29_005": "岡山市北区田中579", "P29_006": 2, "P29_007": 1 }, "geometry": { "type": "Point", "coordinates": [ 133.881151, 34.636121 ] } },
{ "type": "Feature", "properties": { "P29_001": "33100", "P29_002": "E133210000111", "P29_003": 16012, "P29_004": "岡山東支援学校", "P29_005": "岡山市東区宍甘1018", "P29_006": 2, "P29_007": 1 }, "geometry": { "type": "Point", "coordinates": [ 133.989749, 34.694229 ] } },
{ "type": "Feature", "properties": { "P29_001": "33100", "P29_002": "E133210000120", "P29_003": 16012, "P29_004": "岡山南支援学校", "P29_005": "岡山市南区内尾721-3", "P29_006": 2, "P29_007": 1 }, "geometry": { "type": "Point", "coordinates": [ 133.867146, 34.591969 ] } },
{ "type": "Feature", "properties": { "P29_001": "33100", "P29_002": "H133310000015", "P29_003": 16016, "P29_004": "岡山ファッションスクール", "P29_005": "岡山市北区厚生町2-10-3", "P29_006": 4, "P29_007": 0 }, "geometry": { "type": "Point", "coordinates": [ 133.913664, 34.65572 ] } },
{ "type": "Feature", "properties": { "P29_001": "33100", "P29_002": "H133310000033", "P29_003": 16016, "P29_004": "岡山理科大学専門学校", "P29_005": "岡山市北区半田町8-3", "P29_006": 4, "P29_007": 0 }, "geometry": { "type": "Point", "coordinates": [ 133.933736, 34.695574 ] } },
{ "type": "Feature", "properties": { "P29_001": "33100", "P29_002": "H133310000042", "P29_003": 16016, "P29_004": "岡山赤十字看護専門学校", "P29_005": "岡山市北区青江2-1-1", "P29_006": 4, "P29_007": 0 }, "geometry": { "type": "Point", "coordinates": [ 133.922661, 34.634381 ] } },
{ "type": "Feature", "properties": { "P29_001": "33100", "P29_002": "H133310000051", "P29_003": 16016, "P29_004": "岡山済生会看護専門学校", "P29_005": "岡山市北区国体町1-11", "P29_006": 4, "P29_007": 0 }, "geometry": { "type": "Point", "coordinates": [ 133.91871, 34.671716 ] } },
{ "type": "Feature", "properties": { "P29_001": "33100", "P29_002": "H133310000079", "P29_003": 16016, "P29_004": "旭川荘厚生専門学院", "P29_005": "岡山市北区祇園866", "P29_006": 4, "P29_007": 0 }, "geometry": { "type": "Point", "coordinates": [ 133.956764, 34.70734 ] } },
{ "type": "Feature", "properties": { "P29_001": "33100", "P29_002": "H133310000088", "P29_003": 16016, "P29_004": "中国デザイン専門学校", "P29_005": "岡山市北区船頭町12", "P29_006": 4, "P29_007": 0 }, "geometry": { "type": "Point", "coordinates": [ 133.928723, 34.65066 ] } },
{ "type": "Feature", "properties": { "P29_001": "33100", "P29_002": "H133310000097", "P29_003": 16016, "P29_004": "岡山労災看護専門学校", "P29_005": "岡山市南区築港緑町1-10-25", "P29_006": 4, "P29_007": 0 }, "geometry": { "type": "Point", "coordinates": [ 133.932413, 34.604805 ] } },
{ "type": "Feature", "properties": { "P29_001": "33100", "P29_002": "H133310000104", "P29_003": 16016, "P29_004": "岡山医療福祉専門学校", "P29_005": "岡山市中区門田屋敷3-5-18", "P29_006": 4, "P29_007": 0 }, "geometry": { "type": "Point", "coordinates": [ 133.940494, 34.653763 ] } },
{ "type": "Feature", "properties": { "P29_001": "33100", "P29_002": "H133310000113", "P29_003": 16016, "P29_004": "岡山県理容美容専門学校", "P29_005": "岡山市北区大元2-6-5", "P29_006": 4, "P29_007": 0 }, "geometry": { "type": "Point", "coordinates": [ 133.903428, 34.641664 ] } },
{ "type": "Feature", "properties": { "P29_001": "33100", "P29_002": "H133310000122", "P29_003": 16016, "P29_004": "岡山歯科技工専門学院", "P29_005": "岡山市北区楢津2182", "P29_006": 4, "P29_007": 0 }, "geometry": { "type": "Point", "coordinates": [ 133.882293, 34.681422 ] } },
{ "type": "Feature", "properties": { "P29_001": "33100", "P29_002": "H133310000131", "P29_003": 16016, "P29_004": "専門学校ビーマックス", "P29_005": "岡山市北区駅元町5-18", "P29_006": 4, "P29_007": 0 }, "geometry": { "type": "Point", "coordinates": [ 133.914496, 34.663978 ] } },
{ "type": "Feature", "properties": { "P29_001": "33100", "P29_002": "H133310000140", "P29_003": 16016, "P29_004": "西日本調理製菓専門学校", "P29_005": "岡山市北区大供3-2-18", "P29_006": 4, "P29_007": 0 }, "geometry": { "type": "Point", "coordinates": [ 133.916584, 34.656513 ] } },
{ "type": "Feature", "properties": { "P29_001": "33100", "P29_002": "H133310000159", "P29_003": 16016, "P29_004": "岡山ビジネスカレッジ", "P29_005": "岡山市北区岩田町3-22", "P29_006": 4, "P29_007": 0 }, "geometry": { "type": "Point", "coordinates": [ 133.921751, 34.669788 ] } },
{ "type": "Feature", "properties": { "P29_001": "33100", "P29_002": "H133310000168", "P29_003": 16016, "P29_004": "岡山情報ビジネス学院", "P29_005": "岡山市北区駅元町1-4ﾀｰﾐﾅﾙｽｸｴｱ6F", "P29_006": 4, "P29_007": 0 }, "geometry": { "type": "Point", "coordinates": [ 133.91851, 34.664061 ] } },
{ "type": "Feature", "properties": { "P29_001": "33100", "P29_002": "H133310000177", "P29_003": 16016, "P29_004": "岡山科学技術専門学校", "P29_005": "岡山市北区昭和町8-10", "P29_006": 4, "P29_007": 0 }, "geometry": { "type": "Point", "coordinates": [ 133.912392, 34.663274 ] } },
{ "type": "Feature", "properties": { "P29_001": "33100", "P29_002": "H133310000186", "P29_003": 16016, "P29_004": "岡山高等歯科衛生専門学院", "P29_005": "岡山市北区石関町1-5", "P29_006": 4, "P29_007": 0 }, "geometry": { "type": "Point", "coordinates": [ 133.930839, 34.666614 ] } },
{ "type": "Feature", "properties": { "P29_001": "33100", "P29_002": "H133310000195", "P29_003": 16016, "P29_004": "ワールドオプティカルカレッジ", "P29_005": "岡山市中区平井6-6-11", "P29_006": 4, "P29_007": 0 }, "geometry": { "type": "Point", "coordinates": [ 133.938076, 34.63994 ] } },
{ "type": "Feature", "properties": { "P29_001": "33100", "P29_002": "H133310000202", "P29_003": 16016, "P29_004": "岡山医療技術専門学校", "P29_005": "岡山市北区大供3-2-18", "P29_006": 4, "P29_007": 0 }, "geometry": { "type": "Point", "coordinates": [ 133.916586, 34.656778 ] } },
{ "type": "Feature", "properties": { "P29_001": "33100", "P29_002": "H133310000211", "P29_003": 16016, "P29_004": "ソワニエ看護専門学校", "P29_005": "岡山市中区倉田394-3", "P29_006": 4, "P29_007": 0 }, "geometry": { "type": "Point", "coordinates": [ 133.960781, 34.63368 ] } },
{ "type": "Feature", "properties": { "P29_001": "33100", "P29_002": "H133310000220", "P29_003": 16016, "P29_004": "岡山商科大学専門学校", "P29_005": "岡山市北区伊島町3-738-1", "P29_006": 4, "P29_007": 0 }, "geometry": { "type": "Point", "coordinates": [ 133.90516, 34.679434 ] } },
{ "type": "Feature", "properties": { "P29_001": "33100", "P29_002": "H133310000239", "P29_003": 16016, "P29_004": "自由高等学院", "P29_005": "岡山市北区島田本町1-2-12", "P29_006": 4, "P29_007": 0 }, "geometry": { "type": "Point", "coordinates": [ 133.911117, 34.661884 ] } },
{ "type": "Feature", "properties": { "P29_001": "33100", "P29_002": "H133310000248", "P29_003": 16016, "P29_004": "朝日医療大学校", "P29_005": "岡山市北区奉還町2-7-1", "P29_006": 4, "P29_007": 0 }, "geometry": { "type": "Point", "coordinates": [ 133.915041, 34.668652 ] } },
{ "type": "Feature", "properties": { "P29_001": "33100", "P29_002": "H133310000257", "P29_003": 16016, "P29_004": "専門学校岡山ビューティモード", "P29_005": "岡山市北区昭和町3-12", "P29_006": 4, "P29_007": 0 }, "geometry": { "type": "Point", "coordinates": [ 133.913555, 34.664813 ] } },
{ "type": "Feature", "properties": { "P29_001": "33100", "P29_002": "H133310000266", "P29_003": 16016, "P29_004": "旭川荘厚生専門学院吉井川キャンパス", "P29_005": "岡山市東区西大寺浜610", "P29_006": 4, "P29_007": 0 }, "geometry": { "type": "Point", "coordinates": [ 134.045058, 34.646513 ] } },
{ "type": "Feature", "properties": { "P29_001": "33100", "P29_002": "H133310000275", "P29_003": 16016, "P29_004": "岡山医療センター附属岡山看護助産学校", "P29_005": "岡山市北区田益1711-1", "P29_006": 0, "P29_007": 0 }, "geometry": { "type": "Point", "coordinates": [ 133.898972, 34.708756 ] } },
{ "type": "Feature", "properties": { "P29_001": "33100", "P29_002": "H133310000284", "P29_003": 16016, "P29_004": "岡山プロフェッショナル・ビューティ専門学校", "P29_005": "岡山市北区下伊福2-6-4", "P29_006": 4, "P29_007": 0 }, "geometry": { "type": "Point", "coordinates": [ 133.906439, 34.664677 ] } },
{ "type": "Feature", "properties": { "P29_001": "33100", "P29_002": "H133310000293", "P29_003": 16016, "P29_004": "インターナショナル岡山歯科衛生専門学校", "P29_005": "岡山市北区大供3-2-18", "P29_006": 4, "P29_007": 0 }, "geometry": { "type": "Point", "coordinates": [ 133.916594, 34.656639 ] } },
{ "type": "Feature", "properties": { "P29_001": "33100", "P29_002": "H133310000499", "P29_003": 16016, "P29_004": "岡山・建部医療福祉専門学校", "P29_005": "岡山市岡山市北区建部町福渡408-20", "P29_006": 4, "P29_007": 0 }, "geometry": { "type": "Point", "coordinates": [ 133.90589, 34.868892 ] } },
{ "type": "Feature", "properties": { "P29_001": "33100", "P29_002": "H133310000523", "P29_003": 16016, "P29_004": "大原ビジネス公務員専門学校岡山校", "P29_005": "岡山市北区柳町2-5-21", "P29_006": 4, "P29_007": 0 }, "geometry": { "type": "Point", "coordinates": [ 133.920688, 34.65754 ] } },
{ "type": "Feature", "properties": { "P29_001": "33100", "P29_002": "H133310000532", "P29_003": 16016, "P29_004": "岡山情報ＩＴクリエイター専門学校", "P29_005": "岡山市北区柳町2-5-21", "P29_006": 4, "P29_007": 0 }, "geometry": { "type": "Point", "coordinates": [ 133.920688, 34.657479 ] } },
{ "type": "Feature", "properties": { "P29_001": "33100", "P29_002": "H233310000014", "P29_003": 16015, "P29_004": "岡山進研学院", "P29_005": "岡山市北区伊福町2-10-27", "P29_006": 4, "P29_007": 0 }, "geometry": { "type": "Point", "coordinates": [ 133.91474, 34.672432 ] } },
{ "type": "Feature", "properties": { "P29_001": "33100", "P29_002": "H233310000023", "P29_003": 16015, "P29_004": "岡山自動車学校", "P29_005": "岡山市中区円山646", "P29_006": 4, "P29_007": 0 }, "geometry": { "type": "Point", "coordinates": [ 133.967029, 34.658284 ] } },
{ "type": "Feature", "properties": { "P29_001": "33100", "P29_002": "H233310000032", "P29_003": 16015, "P29_004": "英数学館岡山校", "P29_005": "岡山市北区学南町1-9-1", "P29_006": 4, "P29_007": 0 }, "geometry": { "type": "Point", "coordinates": [ 133.923042, 34.679162 ] } },
{ "type": "Feature", "properties": { "P29_001": "33100", "P29_002": "H233310000041", "P29_003": 16015, "P29_004": "岡山健康学院", "P29_005": "岡山市北区田町1-8-17", "P29_006": 4, "P29_007": 0 }, "geometry": { "type": "Point", "coordinates": [ 133.924462, 34.661798 ] } },
{ "type": "Feature", "properties": { "P29_001": "33100", "P29_002": "H233310000050", "P29_003": 16015, "P29_004": "旭川荘療育アカデミー", "P29_005": "岡山市北区祇園866", "P29_006": 4, "P29_007": 0 }, "geometry": { "type": "Point", "coordinates": [ 133.957617, 34.708274 ] } },
{ "type": "Feature", "properties": { "P29_001": "33100", "P29_002": "H233310000130", "P29_003": 16015, "P29_004": "岡山外語学院", "P29_005": "岡山市北区舟橋町2-10", "P29_006": 4, "P29_007": 0 }, "geometry": { "type": "Point", "coordinates": [ 133.93028, 34.653651 ] } },
{ "type": "Feature", "properties": { "P29_001": "33100", "P29_002": "E133210000139", "P29_003": 16012, "P29_004": "岡山瀬戸高等支援学校", "P29_005": "岡山市東区瀬戸町江尻1326", "P29_006": 2, "P29_007": 1 }, "geometry": { "type": "Point", "coordinates": [ 134.049126, 34.723224 ] } },
{ "type": "Feature", "properties": { "P29_001": "33100", "P29_002": "F133110109503", "P29_003": 16007, "P29_004": "岡山大学", "P29_005": "岡山市北区津島中1-1-1", "P29_006": 1, "P29_007": 1 }, "geometry": { "type": "Point", "coordinates": [ 133.921562, 34.689838 ] } },
{ "type": "Feature", "properties": { "P29_001": "33100", "P29_002": "F133310109545", "P29_003": 16007, "P29_004": "岡山商科大学", "P29_005": "岡山市北区津島京町2-10-1", "P29_006": 4, "P29_007": 0 }, "geometry": { "type": "Point", "coordinates": [ 133.901758, 34.682922 ] } },
{ "type": "Feature", "properties": { "P29_001": "33100", "P29_002": "F133310109554", "P29_003": 16007, "P29_004": "岡山理科大学", "P29_005": "岡山市北区理大町1-1", "P29_006": 4, "P29_007": 0 }, "geometry": { "type": "Point", "coordinates": [ 133.927894, 34.697893 ] } },
{ "type": "Feature", "properties": { "P29_001": "33100", "P29_002": "F133310109572", "P29_003": 16007, "P29_004": "ノートルダム清心女子大学", "P29_005": "岡山市北区伊福町2-16-9", "P29_006": 4, "P29_007": 0 }, "geometry": { "type": "Point", "coordinates": [ 133.916285, 34.672729 ] } },
{ "type": "Feature", "properties": { "P29_001": "33100", "P29_002": "F133310109590", "P29_003": 16007, "P29_004": "就実大学", "P29_005": "岡山市中区西川原1-6-1", "P29_006": 4, "P29_007": 0 }, "geometry": { "type": "Point", "coordinates": [ 133.936952, 34.677185 ] } },
{ "type": "Feature", "properties": { "P29_001": "33100", "P29_002": "F133310109616", "P29_003": 16007, "P29_004": "山陽学園大学", "P29_005": "岡山市中区平井1-14-1", "P29_006": 4, "P29_007": 0 }, "geometry": { "type": "Point", "coordinates": [ 133.943432, 34.642947 ] } },
{ "type": "Feature", "properties": { "P29_001": "33100", "P29_002": "F133310109643", "P29_003": 16007, "P29_004": "中国学園大学", "P29_005": "岡山市北区庭瀬83", "P29_006": 4, "P29_007": 0 }, "geometry": { "type": "Point", "coordinates": [ 133.84979, 34.650885 ] } },
{ "type": "Feature", "properties": { "P29_001": "33100", "P29_002": "F133310109652", "P29_003": 16007, "P29_004": "環太平洋大学", "P29_005": "岡山市瀬戸町観音寺721", "P29_006": 4, "P29_007": 0 }, "geometry": { "type": "Point", "coordinates": [ 134.011061, 34.729384 ] } },
{ "type": "Feature", "properties": { "P29_001": "33100", "P29_002": "F133310109661", "P29_003": 16007, "P29_004": "岡山医療専門職大学", "P29_005": "岡山市北区大供3-3-2-18", "P29_006": 4, "P29_007": 0 }, "geometry": { "type": "Point", "coordinates": [ 133.916277, 34.656496 ] } },
{ "type": "Feature", "properties": { "P29_001": "33100", "P29_002": "F233310109704", "P29_003": 16006, "P29_004": "就実短期大学", "P29_005": "岡山市中区西川原1-6-1", "P29_006": 4, "P29_007": 0 }, "geometry": { "type": "Point", "coordinates": [ 133.937033, 34.676951 ] } },
{ "type": "Feature", "properties": { "P29_001": "33100", "P29_002": "F233310109731", "P29_003": 16006, "P29_004": "中国短期大学", "P29_005": "岡山市北区庭瀬83", "P29_006": 4, "P29_007": 0 }, "geometry": { "type": "Point", "coordinates": [ 133.849321, 34.65084 ] } },
{ "type": "Feature", "properties": { "P29_001": "33100", "P29_002": "F233310109759", "P29_003": 16006, "P29_004": "山陽学園短期大学", "P29_005": "岡山市中区平井1-14-1", "P29_006": 4, "P29_007": 0 }, "geometry": { "type": "Point", "coordinates": [ 133.943394, 34.64265 ] } },
{ "type": "Feature", "properties": { "P29_001": "33100", "P29_002": "F133110109503", "P29_003": 16007, "P29_004": "岡山大学", "P29_005": "岡山市北区鹿田町2-5-1", "P29_006": 1, "P29_007": 1 }, "geometry": { "type": "Point", "coordinates": [ 133.91863, 34.650411 ] } },
{ "type": "Feature", "properties": { "P29_001": "33100", "P29_002": "F133110109503", "P29_003": 16007, "P29_004": "岡山大学", "P29_005": "岡山市北区津島中3-1-1", "P29_006": 1, "P29_007": 1 }, "geometry": { "type": "Point", "coordinates": [ 133.921363, 34.687863 ] } },
{ "type": "Feature", "properties": { "P29_001": "33100", "P29_002": "F133310109652", "P29_003": 16007, "P29_004": "環太平洋大学", "P29_005": "岡山市東区矢津2050-13", "P29_006": 4, "P29_007": 1 }, "geometry": { "type": "Point", "coordinates": [ 133.989756, 34.708596 ] } }
]
}
