{
"type": "FeatureCollection",
"name": "P17-12_33_FireStation",
"features": [
{ "type": "Feature", "properties": { "P17_001": "岡山市消防局", "P17_002": "33101", "P17_003": 1, "P17_004": "岡山市北区大供1-1-1" }, "geometry": { "type": "Point", "coordinates": [ 133.919813, 34.655093 ] } },
{ "type": "Feature", "properties": { "P17_001": "岡山市消防局東消防署", "P17_002": "33103", "P17_003": 2, "P17_004": "岡山市東区西大寺上2-7-28" }, "geometry": { "type": "Point", "coordinates": [ 134.036828, 34.658456 ] } },
{ "type": "Feature", "properties": { "P17_001": "岡山市消防局東消防署可知出張所", "P17_002": "33103", "P17_003": 3, "P17_004": "岡山市東区松新町190-11" }, "geometry": { "type": "Point", "coordinates": [ 134.003054, 34.652317 ] } },
{ "type": "Feature", "properties": { "P17_001": "岡山市消防局中消防署", "P17_002": "33102", "P17_003": 2, "P17_004": "岡山市中区今在家地先" }, "geometry": { "type": "Point", "coordinates": [ 133.947388, 34.693365 ] } },
{ "type": "Feature", "properties": { "P17_001": "岡山市消防局中消防署旭東出張所", "P17_002": "33102", "P17_003": 3, "P17_004": "岡山市中区赤坂本町11-44" }, "geometry": { "type": "Point", "coordinates": [ 133.936256, 34.649316 ] } },
{ "type": "Feature", "properties": { "P17_001": "岡山市消防局南消防署", "P17_002": "33104", "P17_003": 2, "P17_004": "岡山市南区南輝2-2-5" }, "geometry": { "type": "Point", "coordinates": [ 133.934229, 34.610348 ] } },
{ "type": "Feature", "properties": { "P17_001": "岡山市消防局南消防署灘崎出張所", "P17_002": "33104", "P17_003": 3, "P17_004": "岡山市南区灘崎町宗津10-1" }, "geometry": { "type": "Point", "coordinates": [ 133.87443, 34.543604 ] } },
{ "type": "Feature", "properties": { "P17_001": "岡山市消防局南消防署妹尾出張所", "P17_002": "33104", "P17_003": 3, "P17_004": "岡山市南区箕島1024-7" }, "geometry": { "type": "Point", "coordinates": [ 133.860903, 34.610984 ] } },
{ "type": "Feature", "properties": { "P17_001": "岡山市消防局北消防署", "P17_002": "33101", "P17_003": 2, "P17_004": "岡山市北区東古松一丁目1番34号" }, "geometry": { "type": "Point", "coordinates": [ 133.917516, 34.650682 ] } },
{ "type": "Feature", "properties": { "P17_001": "岡山市消防局西消防署足守救急ステーション", "P17_002": "33101", "P17_003": 3, "P17_004": "岡山市北区東山内101-1" }, "geometry": { "type": "Point", "coordinates": [ 133.789909, 34.775524 ] } },
{ "type": "Feature", "properties": { "P17_001": "岡山市消防局西消防署吉備津出張所", "P17_002": "33101", "P17_003": 3, "P17_004": "岡山市北区吉備津1016-5" }, "geometry": { "type": "Point", "coordinates": [ 133.84532, 34.672838 ] } },
{ "type": "Feature", "properties": { "P17_001": "岡山市消防局北消防署御津出張所", "P17_002": "33101", "P17_003": 3, "P17_004": "岡山市北区御津宇垣140-2" }, "geometry": { "type": "Point", "coordinates": [ 133.924974, 34.786107 ] } },
{ "type": "Feature", "properties": { "P17_001": "岡山市消防局北消防署御野出張所", "P17_002": "33101", "P17_003": 3, "P17_004": "岡山市北区三野3-4-6" }, "geometry": { "type": "Point", "coordinates": [ 133.93556, 34.691838 ] } },
{ "type": "Feature", "properties": { "P17_001": "岡山市消防局北消防署津高出張所", "P17_002": "33101", "P17_003": 3, "P17_004": "岡山市北区富原3651-3" }, "geometry": { "type": "Point", "coordinates": [ 133.900063, 34.704114 ] } },
{ "type": "Feature", "properties": { "P17_001": "岡山市消防局中消防署竜操出張所", "P17_002": "33102", "P17_003": 3, "P17_004": "岡山市中区兼基104-1" }, "geometry": { "type": "Point", "coordinates": [ 133.972668, 34.674175 ] } },
{ "type": "Feature", "properties": { "P17_001": "岡山市消防局北消防署今出張所", "P17_002": "33101", "P17_003": 3, "P17_004": "岡山市北区下中野1223-6" }, "geometry": { "type": "Point", "coordinates": [ 133.896060479999989, 34.63612751 ] } },
{ "type": "Feature", "properties": { "P17_001": "岡山市消防局西消防署", "P17_002": "33101", "P17_003": 2, "P17_004": "岡山市北区野殿西町427-1" }, "geometry": { "type": "Point", "coordinates": [ 133.87894, 34.658524 ] } },
{ "type": "Feature", "properties": { "P17_001": "岡山市消防局北消防署建部出張所", "P17_002": "33101", "P17_003": 3, "P17_004": "岡山市北区建部町福渡839-2" }, "geometry": { "type": "Point", "coordinates": [ 133.902621, 34.868762 ] } },
{ "type": "Feature", "properties": { "P17_001": "岡山市消防局東消防署上道出張所", "P17_002": "33103", "P17_003": 3, "P17_004": "岡山市東区沼1313-1" }, "geometry": { "type": "Point", "coordinates": [ 134.03059, 34.701958 ] } },
{ "type": "Feature", "properties": { "P17_001": "岡山市消防局東消防署瀬戸出張所", "P17_002": "33103", "P17_003": 3, "P17_004": "岡山市東区瀬戸町万富215-1" }, "geometry": { "type": "Point", "coordinates": [ 134.075391, 34.759586 ] } }
]
}
